{
    "type": "FeatureCollection",
    "features": [
        {
            "type": "Feature",
            "id": "node/198209365",
            "geometry": {
                "type": "Point",
                "coordinates": [
                    11.529548,
                    48.178238
                ]
            },
            "properties": {
                "addr:postcode": "80992",
                "brand": "KFC",
                "addr:housenumber": "44",
                "opening_hours": "Mo-Sa 10:30-24:00; Su 11:00-24:00",
                "addr:city": "München",
                "amenity": "fast_food",
                "addr:street": "Hanauer Straße",
                "drive_through": "yes",
                "@id": "node/198209365"
            }
        },
        {
            "type": "Feature",
            "id": "node/256486453",
            "geometry": {
                "type": "Point",
                "coordinates": [
                    11.586386,
                    48.192856
                ]
            },
            "properties": {
                "addr:postcode": "80939",
                "brand": "KFC",
                "addr:housenumber": "5",
                "opening_hours": "Su-Th 10:30-23:00, Fr,Sa 10:30-24:00",
                "addr:city": "München",
                "amenity": "fast_food",
                "addr:street": "Maria-Probst-Straße",
                "@id": "node/256486453"
            }
        },
        {
            "type": "Feature",
            "id": "node/266679712",
            "geometry": {
                "type": "Point",
                "coordinates": [
                    9.734317,
                    52.416319
                ]
            },
            "properties": {
                "addr:postcode": "30179",
                "brand": "KFC",
                "addr:housenumber": "272",
                "opening_hours": "Mo-Th 11:00-23:00; Fr-Sa 11:00-00:00; Su,PH 11:00-23:00",
                "addr:city": "Hannover",
                "amenity": "fast_food",
                "addr:street": "Vahrenwalder Straße",
                "drive_through": "yes",
                "@id": "node/266679712"
            }
        },
        {
            "type": "Feature",
            "id": "node/268808549",
            "geometry": {
                "type": "Point",
                "coordinates": [
                    9.961109,
                    53.549756
                ]
            },
            "properties": {
                "addr:postcode": "20359",
                "brand": "KFC",
                "addr:housenumber": "100",
                "opening_hours": "Su-Th 11:00-01:00, Fr,Sa 11:00-07:00",
                "addr:city": "Hamburg",
                "amenity": "fast_food",
                "addr:street": "Reeperbahn",
                "@id": "node/268808549"
            }
        },
        {
            "type": "Feature",
            "id": "node/271873332",
            "geometry": {
                "type": "Point",
                "coordinates": [
                    7.499127,
                    51.504446
                ]
            },
            "properties": {
                "addr:postcode": "44141",
                "brand": "KFC",
                "addr:housenumber": "166",
                "opening_hours": "Su-Th 11:00-23:00, Fr,Sa 11:00-24:00",
                "addr:city": "Dortmund",
                "amenity": "fast_food",
                "addr:street": "Westfalendamm",
                "@id": "node/271873332"
            }
        },
        {
            "type": "Feature",
            "id": "node/279019188",
            "geometry": {
                "type": "Point",
                "coordinates": [
                    8.021725,
                    52.2927
                ]
            },
            "properties": {
                "addr:postcode": "49090",
                "brand": "KFC",
                "addr:housenumber": "96",
                "opening_hours": "Su-Th 11:00-23:00; Fr,Sa 11:00-23:00",
                "addr:city": "Osnabrück",
                "amenity": "fast_food",
                "addr:street": "Pagenstecherstraße",
                "@id": "node/279019188"
            }
        },
        {
            "type": "Feature",
            "id": "node/291088663",
            "geometry": {
                "type": "Point",
                "coordinates": [
                    8.63334,
                    49.886891
                ]
            },
            "properties": {
                "brand": "KFC",
                "amenity": "fast_food",
                "@id": "node/291088663"
            }
        },
        {
            "type": "Feature",
            "id": "node/313325387",
            "geometry": {
                "type": "Point",
                "coordinates": [
                    13.337072,
                    52.504856
                ]
            },
            "properties": {
                "addr:postcode": "10789",
                "brand": "KFC",
                "addr:housenumber": "9",
                "opening_hours": "Mo-Su,PH 10:00-24:00",
                "addr:city": "Berlin",
                "amenity": "fast_food",
                "addr:street": "Tauentzienstraße",
                "drive_through": "no",
                "@id": "node/313325387"
            }
        },
        {
            "type": "Feature",
            "id": "node/408067211",
            "geometry": {
                "type": "Point",
                "coordinates": [
                    10.875072,
                    48.381319
                ]
            },
            "properties": {
                "brand": "KFC",
                "opening_hours": "Su-Th 10:00-24:00, Fr,Sa 10:00-01:00",
                "amenity": "fast_food",
                "@id": "node/408067211"
            }
        },
        {
            "type": "Feature",
            "id": "node/581965025",
            "geometry": {
                "type": "Point",
                "coordinates": [
                    6.775199,
                    51.226387
                ]
            },
            "properties": {
                "addr:postcode": "40213",
                "brand": "KFC",
                "addr:housenumber": "48",
                "addr:city": "Düsseldorf",
                "amenity": "fast_food",
                "addr:street": "Bolkerstraße",
                "@id": "node/581965025"
            }
        },
        {
            "type": "Feature",
            "id": "node/602315662",
            "geometry": {
                "type": "Point",
                "coordinates": [
                    13.412701,
                    52.520612
                ]
            },
            "properties": {
                "addr:postcode": "10178",
                "brand": "KFC",
                "addr:housenumber": "117",
                "opening_hours": "Mo-Sa 10:00-24:00; Su 11:00-24:00",
                "addr:city": "Berlin",
                "amenity": "fast_food",
                "addr:street": "Dircksenstraße",
                "drive_through": "no",
                "@id": "node/602315662"
            }
        },
        {
            "type": "Feature",
            "id": "node/797842969",
            "geometry": {
                "type": "Point",
                "coordinates": [
                    11.068278,
                    49.448897
                ]
            },
            "properties": {
                "addr:postcode": "90402",
                "brand": "KFC",
                "addr:housenumber": "59",
                "opening_hours": "Mo-Th 11:00-24:00, Fr,Sa 11:00-01:00, Su,PH 11:00-24:00",
                "addr:city": "Nürnberg",
                "amenity": "fast_food",
                "addr:street": "Ludwigstraße",
                "@id": "node/797842969"
            }
        },
        {
            "type": "Feature",
            "id": "node/926718865",
            "geometry": {
                "type": "Point",
                "coordinates": [
                    7.256938,
                    51.282815
                ]
            },
            "properties": {
                "brand": "KFC",
                "opening_hours": "Su-Th 11:00-23:00; Fr-Sa 11:00-00:00",
                "contact:website": "http://www.kfc.de",
                "amenity": "fast_food",
                "drive_through": "yes",
                "@id": "node/926718865"
            }
        },
        {
            "type": "Feature",
            "id": "node/1135635831",
            "geometry": {
                "type": "Point",
                "coordinates": [
                    8.910759,
                    50.131232
                ]
            },
            "properties": {
                "brand": "KFC",
                "amenity": "fast_food",
                "@id": "node/1135635831"
            }
        },
        {
            "type": "Feature",
            "id": "node/1196739534",
            "geometry": {
                "type": "Point",
                "coordinates": [
                    8.651938,
                    49.872235
                ]
            },
            "properties": {
                "addr:postcode": "64283",
                "brand": "KFC",
                "addr:housenumber": "5a",
                "opening_hours": "Mo-Th 10:00-22:00; Fr-Sa 10:00-24:00; Su,PH 12:00-22:00",
                "addr:city": "Darmstadt",
                "amenity": "fast_food",
                "addr:street": "Luisenplatz",
                "drive_through": "no",
                "@id": "node/1196739534"
            }
        },
        {
            "type": "Feature",
            "id": "node/1197396719",
            "geometry": {
                "type": "Point",
                "coordinates": [
                    13.198248,
                    52.533794
                ]
            },
            "properties": {
                "brand": "KFC",
                "opening_hours": "10:00-22:00",
                "contact:website": "http://www.kfc.de",
                "amenity": "fast_food",
                "@id": "node/1197396719"
            }
        },
        {
            "type": "Feature",
            "id": "node/1330682274",
            "geometry": {
                "type": "Point",
                "coordinates": [
                    12.37968,
                    51.345253
                ]
            },
            "properties": {
                "addr:postcode": "04109",
                "brand": "KFC",
                "addr:housenumber": "7",
                "opening_hours": "Su-Th 09:30-23:00; Fr,Sa 09:30-23:00",
                "addr:city": "Leipzig",
                "amenity": "fast_food",
                "addr:street": "Willy-Brandt-Platz",
                "@id": "node/1330682274"
            }
        },
        {
            "type": "Feature",
            "id": "node/1585536828",
            "geometry": {
                "type": "Point",
                "coordinates": [
                    8.016457,
                    50.875622
                ]
            },
            "properties": {
                "addr:postcode": "57072",
                "brand": "KFC",
                "addr:housenumber": "16",
                "opening_hours": "Mo-Sa 11:00-21:00, Su 13:00-20:00",
                "addr:city": "Siegen",
                "amenity": "fast_food",
                "addr:street": "Am Bahnhof",
                "drive_through": "no",
                "@id": "node/1585536828"
            }
        },
        {
            "type": "Feature",
            "id": "node/1655607190",
            "geometry": {
                "type": "Point",
                "coordinates": [
                    11.56321,
                    48.139128
                ]
            },
            "properties": {
                "brand": "KFC",
                "opening_hours": "Su-Th,PH 10:30-23:30, Fr,Sa 10:30-03:00",
                "amenity": "fast_food",
                "@id": "node/1655607190"
            }
        },
        {
            "type": "Feature",
            "id": "node/1682137861",
            "geometry": {
                "type": "Point",
                "coordinates": [
                    6.939689,
                    50.936748
                ]
            },
            "properties": {
                "addr:postcode": "50674",
                "brand": "KFC",
                "addr:housenumber": "12",
                "opening_hours": "Mo-Su 11:00-00:00",
                "addr:city": "Köln",
                "amenity": "fast_food",
                "addr:street": "Rudolfplatz",
                "@id": "node/1682137861"
            }
        },
        {
            "type": "Feature",
            "id": "node/2016467601",
            "geometry": {
                "type": "Point",
                "coordinates": [
                    10.670738,
                    53.879286
                ]
            },
            "properties": {
                "brand": "KFC",
                "opening_hours": "Su-Th 10:00-24:00; Fr-Sa 10:00-04:00",
                "amenity": "fast_food",
                "@id": "node/2016467601"
            }
        },
        {
            "type": "Feature",
            "id": "node/2070105169",
            "geometry": {
                "type": "Point",
                "coordinates": [
                    7.846838,
                    48.025953
                ]
            },
            "properties": {
                "addr:postcode": "79108",
                "brand": "KFC",
                "addr:housenumber": "68",
                "opening_hours": "Su-Th 11:00-23:00; Fr-Sa 11:00-24:00",
                "addr:city": "Freiburg im Breisgau",
                "amenity": "fast_food",
                "addr:street": "Tullastraße",
                "drive_through": "yes",
                "@id": "node/2070105169"
            }
        },
        {
            "type": "Feature",
            "id": "node/2405458294",
            "geometry": {
                "type": "Point",
                "coordinates": [
                    7.459961,
                    51.517259
                ]
            },
            "properties": {
                "brand": "KFC",
                "opening_hours": "Su-Th 11:00-23:00, Fr,Sa 11:00-24:00",
                "amenity": "fast_food",
                "@id": "node/2405458294"
            }
        },
        {
            "type": "Feature",
            "id": "node/2477660521",
            "geometry": {
                "type": "Point",
                "coordinates": [
                    10.00585,
                    53.553446
                ]
            },
            "properties": {
                "brand": "KFC",
                "opening_hours": "Mo-Su 10:00-22:00",
                "addr:city": "Hamburg",
                "amenity": "fast_food",
                "addr:street": "Glockengießerwall",
                "@id": "node/2477660521"
            }
        },
        {
            "type": "Feature",
            "id": "node/2512417090",
            "geometry": {
                "type": "Point",
                "coordinates": [
                    13.739011,
                    51.049541
                ]
            },
            "properties": {
                "addr:postcode": "01067",
                "brand": "KFC",
                "addr:housenumber": "5",
                "opening_hours": "Mo-Su 11:00-23:00",
                "addr:city": "Dresden",
                "amenity": "fast_food",
                "addr:street": "Altmarkt",
                "@id": "node/2512417090"
            }
        },
        {
            "type": "Feature",
            "id": "node/2580768546",
            "geometry": {
                "type": "Point",
                "coordinates": [
                    6.880716,
                    51.491745
                ]
            },
            "properties": {
                "brand": "KFC",
                "addr:housenumber": "1000-62",
                "opening_hours": "Mo-Sa 10:00-20:00",
                "addr:city": "Oberhausen",
                "amenity": "fast_food",
                "addr:street": "Centroallee",
                "@id": "node/2580768546"
            }
        },
        {
            "type": "Feature",
            "id": "node/3110958004",
            "geometry": {
                "type": "Point",
                "coordinates": [
                    11.663741,
                    48.043004
                ]
            },
            "properties": {
                "brand": "KFC",
                "opening_hours": "Mo-Sa 10:30-23:00; Su 11:00-23:00",
                "amenity": "fast_food",
                "@id": "node/3110958004"
            }
        },
        {
            "type": "Feature",
            "id": "node/3127362333",
            "geometry": {
                "type": "Point",
                "coordinates": [
                    9.183727,
                    48.791285
                ]
            },
            "properties": {
                "brand": "KFC",
                "opening_hours": "Su-Th 10:00-20:00; Fr 10:00-21:30; Sa 09:30-20:00",
                "amenity": "fast_food",
                "@id": "node/3127362333"
            }
        },
        {
            "type": "Feature",
            "id": "node/3212683116",
            "geometry": {
                "type": "Point",
                "coordinates": [
                    7.019389,
                    51.332276
                ]
            },
            "properties": {
                "brand": "KFC",
                "opening_hours": "Su-Th 11:00-23:00; Fr-Sa 11:00-24:00",
                "contact:website": "https://www.kfc.de/",
                "amenity": "fast_food",
                "@id": "node/3212683116"
            }
        },
        {
            "type": "Feature",
            "id": "node/3241470357",
            "geometry": {
                "type": "Point",
                "coordinates": [
                    6.70851,
                    51.418555
                ]
            },
            "properties": {
                "addr:postcode": "47228",
                "brand": "KFC",
                "addr:housenumber": "55",
                "opening_hours": "Su-Th 11:00-24:00, Fr,Sa 11:00-01:00",
                "addr:city": "Duisburg",
                "amenity": "fast_food",
                "addr:street": "Asterlager Straße",
                "@id": "node/3241470357"
            }
        },
        {
            "type": "Feature",
            "id": "node/3298545127",
            "geometry": {
                "type": "Point",
                "coordinates": [
                    8.682713,
                    49.397091
                ]
            },
            "properties": {
                "addr:postcode": "69115",
                "brand": "KFC",
                "addr:housenumber": "3",
                "addr:city": "Heidelberg",
                "amenity": "fast_food",
                "addr:street": "Hebelstraße",
                "@id": "node/3298545127"
            }
        },
        {
            "type": "Feature",
            "id": "node/3413385941",
            "geometry": {
                "type": "Point",
                "coordinates": [
                    8.569462,
                    50.050957
                ]
            },
            "properties": {
                "addr:postcode": "60549",
                "brand": "KFC",
                "opening_hours": "Mo-Su 09:00-22:00",
                "addr:city": "Frankfurt am Main",
                "amenity": "fast_food",
                "@id": "node/3413385941"
            }
        },
        {
            "type": "Feature",
            "id": "node/4111922542",
            "geometry": {
                "type": "Point",
                "coordinates": [
                    9.288713,
                    53.192433
                ]
            },
            "properties": {
                "addr:postcode": "27404",
                "brand": "KFC",
                "addr:housenumber": "8",
                "opening_hours": "Mo-Su 11:00-22:00; Fr,Sa 11:00-24:00",
                "addr:city": "Gyhum",
                "amenity": "fast_food",
                "addr:street": "An der Autobahn",
                "@id": "node/4111922542"
            }
        },
        {
            "type": "Feature",
            "id": "node/4330358636",
            "geometry": {
                "type": "Point",
                "coordinates": [
                    9.972452,
                    48.401872
                ]
            },
            "properties": {
                "addr:postcode": "89077",
                "brand": "KFC",
                "addr:housenumber": "40",
                "opening_hours": "Su-Th 10:00-23:00, Fr,Sa 10:00-01:00",
                "addr:city": "Ulm",
                "amenity": "fast_food",
                "addr:street": "Blaubeurer Straße",
                "drive_through": "yes",
                "@id": "node/4330358636"
            }
        },
        {
            "type": "Feature",
            "id": "node/4411897982",
            "geometry": {
                "type": "Point",
                "coordinates": [
                    11.461074,
                    48.149005
                ]
            },
            "properties": {
                "addr:postcode": "81241",
                "brand": "KFC",
                "addr:housenumber": "8",
                "opening_hours": "Mo-Sa 10:30-23:00; Su 11:00-23:00",
                "addr:city": "München",
                "amenity": "fast_food",
                "addr:street": "Pasinger Bahnhofsplatz",
                "@id": "node/4411897982"
            }
        },
        {
            "type": "Feature",
            "id": "node/4484282233",
            "geometry": {
                "type": "Point",
                "coordinates": [
                    9.13441,
                    50.203688
                ]
            },
            "properties": {
                "brand": "KFC",
                "opening_hours": "Mo-Su 11:00-23:00; Fr,Sa 11:00-24:00",
                "contact:website": "https://www.kfc.de/",
                "amenity": "fast_food",
                "@id": "node/4484282233"
            }
        },
        {
            "type": "Feature",
            "id": "node/4544606579",
            "geometry": {
                "type": "Point",
                "coordinates": [
                    8.633644,
                    50.157748
                ]
            },
            "properties": {
                "brand": "KFC",
                "opening_hours": "Mo-Sa 10:00-22:00; Su,PH 12:00-20:00",
                "amenity": "fast_food",
                "@id": "node/4544606579"
            }
        },
        {
            "type": "Feature",
            "id": "node/4549741021",
            "geometry": {
                "type": "Point",
                "coordinates": [
                    11.340336,
                    49.042611
                ]
            },
            "properties": {
                "brand": "KFC",
                "addr:housenumber": "1a",
                "opening_hours": "Su-Th 10:30-23:00, Fr,Sa 10:00-24:00",
                "amenity": "fast_food",
                "addr:street": "An der Autobahn",
                "@id": "node/4549741021"
            }
        },
        {
            "type": "Feature",
            "id": "node/4559078053",
            "geometry": {
                "type": "Point",
                "coordinates": [
                    7.458957,
                    51.51363
                ]
            },
            "properties": {
                "brand": "KFC",
                "opening_hours": "Mo-Sa 10:00-20:00",
                "amenity": "fast_food",
                "@id": "node/4559078053"
            }
        },
        {
            "type": "Feature",
            "id": "node/4614529742",
            "geometry": {
                "type": "Point",
                "coordinates": [
                    13.306686,
                    52.507323
                ]
            },
            "properties": {
                "addr:postcode": "10627",
                "brand": "KFC",
                "addr:housenumber": "115",
                "addr:city": "Berlin",
                "amenity": "fast_food",
                "addr:street": "Wilmersdorfer Straße",
                "@id": "node/4614529742"
            }
        },
        {
            "type": "Feature",
            "id": "node/4630853554",
            "geometry": {
                "type": "Point",
                "coordinates": [
                    7.430199,
                    52.325318
                ]
            },
            "properties": {
                "addr:postcode": "48499",
                "brand": "KFC",
                "addr:housenumber": "1",
                "opening_hours": "Mo-Th 11:00-23:00, Fr,Sa 11:00-24:00, Su 11:00-23:00",
                "addr:city": "Salzbergen",
                "amenity": "fast_food",
                "addr:street": "Holsterfeld",
                "drive_through": "yes",
                "@id": "node/4630853554"
            }
        },
        {
            "type": "Feature",
            "id": "node/4705756526",
            "geometry": {
                "type": "Point",
                "coordinates": [
                    8.70326,
                    50.0316
                ]
            },
            "properties": {
                "addr:postcode": "63303",
                "brand": "KFC",
                "addr:housenumber": "15",
                "opening_hours": "Mo-Sa 10:00-22:00, Su 13:00-20:00",
                "addr:city": "Dreieich",
                "amenity": "fast_food",
                "addr:street": "Robert-Bosch-Straße",
                "@id": "node/4705756526"
            }
        },
        {
            "type": "Feature",
            "id": "node/4705774773",
            "geometry": {
                "type": "Point",
                "coordinates": [
                    8.606883,
                    49.892312
                ]
            },
            "properties": {
                "brand": "KFC",
                "amenity": "fast_food",
                "@id": "node/4705774773"
            }
        },
        {
            "type": "Feature",
            "id": "node/4774102828",
            "geometry": {
                "type": "Point",
                "coordinates": [
                    7.448535,
                    51.384266
                ]
            },
            "properties": {
                "addr:postcode": "58089",
                "brand": "KFC",
                "addr:housenumber": "8",
                "opening_hours": "Su-Th 11:00-23:00; Fr, Sa 11:00-24:00",
                "contact:website": "http://www.kfc.de",
                "addr:city": "Hagen",
                "amenity": "fast_food",
                "addr:street": "Becheltestraße",
                "drive_through": "yes",
                "@id": "node/4774102828"
            }
        },
        {
            "type": "Feature",
            "id": "node/4794144054",
            "geometry": {
                "type": "Point",
                "coordinates": [
                    6.843489,
                    51.188623
                ]
            },
            "properties": {
                "addr:postcode": "40591",
                "brand": "KFC",
                "addr:housenumber": "148",
                "opening_hours": "Su-Th 11:00-01:00; Fr-Sa 11:00-02:00",
                "addr:city": "Düsseldorf",
                "amenity": "fast_food",
                "addr:street": "Oerschbachstraße",
                "@id": "node/4794144054"
            }
        },
        {
            "type": "Feature",
            "id": "node/4817365211",
            "geometry": {
                "type": "Point",
                "coordinates": [
                    13.390738,
                    52.507592
                ]
            },
            "properties": {
                "addr:postcode": "10969",
                "brand": "KFC",
                "addr:housenumber": "45",
                "opening_hours": "11:00-22:00",
                "contact:website": "http://www.kfc.de",
                "addr:city": "Berlin",
                "amenity": "fast_food",
                "addr:street": "Friedrichstraße",
                "drive_through": "no",
                "@id": "node/4817365211"
            }
        },
        {
            "type": "Feature",
            "id": "node/4875763021",
            "geometry": {
                "type": "Point",
                "coordinates": [
                    8.918446,
                    50.134389
                ]
            },
            "properties": {
                "brand": "KFC",
                "amenity": "fast_food",
                "@id": "node/4875763021"
            }
        },
        {
            "type": "Feature",
            "id": "node/4898171614",
            "geometry": {
                "type": "Point",
                "coordinates": [
                    10.130848,
                    54.316051
                ]
            },
            "properties": {
                "brand": "KFC",
                "opening_hours": "Mo-Sa 10:00-20:00; Su,PH off",
                "amenity": "fast_food",
                "@id": "node/4898171614"
            }
        },
        {
            "type": "Feature",
            "id": "node/5043242745",
            "geometry": {
                "type": "Point",
                "coordinates": [
                    8.39801,
                    49.010394
                ]
            },
            "properties": {
                "addr:postcode": "76133",
                "brand": "KFC",
                "addr:housenumber": "24-28",
                "opening_hours": "PH,Su-Th 11:00-23:00, Fr,Sa 11:00-01:00",
                "addr:city": "Karlsruhe",
                "amenity": "fast_food",
                "addr:street": "Waldstraße",
                "@id": "node/5043242745"
            }
        },
        {
            "type": "Feature",
            "id": "node/5103798366",
            "geometry": {
                "type": "Point",
                "coordinates": [
                    9.429551,
                    48.643977
                ]
            },
            "properties": {
                "addr:postcode": "73230",
                "brand": "KFC",
                "addr:housenumber": "15",
                "opening_hours": "11:00-22:00",
                "contact:website": "https://www.kfc.de",
                "addr:city": "Kirchheim unter Teck",
                "amenity": "fast_food",
                "addr:street": "Kruichling",
                "@id": "node/5103798366"
            }
        },
        {
            "type": "Feature",
            "id": "node/5229173635",
            "geometry": {
                "type": "Point",
                "coordinates": [
                    8.443716,
                    49.557786
                ]
            },
            "properties": {
                "addr:postcode": "68307",
                "brand": "KFC",
                "addr:housenumber": "125a",
                "opening_hours": "Mo-Sa 11:00-23:00, Su 12:00-23:00",
                "addr:city": "Mannheim",
                "amenity": "fast_food",
                "addr:street": "Frankenthaler Straße",
                "@id": "node/5229173635"
            }
        },
        {
            "type": "Feature",
            "id": "node/5292670184",
            "geometry": {
                "type": "Point",
                "coordinates": [
                    8.597037,
                    49.673061
                ]
            },
            "properties": {
                "addr:postcode": "64625",
                "brand": "KFC",
                "addr:housenumber": "1",
                "addr:city": "Bensheim",
                "amenity": "fast_food",
                "addr:street": "Ampèrestraße",
                "@id": "node/5292670184"
            }
        },
        {
            "type": "Feature",
            "id": "node/5320923451",
            "geometry": {
                "type": "Point",
                "coordinates": [
                    9.226098,
                    48.839499
                ]
            },
            "properties": {
                "addr:postcode": "70378",
                "brand": "KFC",
                "addr:housenumber": "50",
                "opening_hours": "Mo-Th 11:00-23:00; Fr 11:00-01:00, Sa 11:00-01:00, Su 11:00-23:00; PH 11:00-23:00",
                "addr:city": "Stuttgart",
                "amenity": "fast_food",
                "addr:street": "Aldinger Straße",
                "drive_through": "yes",
                "@id": "node/5320923451"
            }
        },
        {
            "type": "Feature",
            "id": "node/5558884566",
            "geometry": {
                "type": "Point",
                "coordinates": [
                    9.144025,
                    49.979715
                ]
            },
            "properties": {
                "addr:postcode": "63739",
                "brand": "KFC",
                "opening_hours": "Mo-Th 10:00-23:00, Fr,Sa 10:00-24:00, Su,PH 10:00-23:00",
                "addr:city": "Aschaffenburg",
                "amenity": "fast_food",
                "addr:street": "Ludwigstraße",
                "drive_through": "no",
                "@id": "node/5558884566"
            }
        },
        {
            "type": "Feature",
            "id": "node/5749529337",
            "geometry": {
                "type": "Point",
                "coordinates": [
                    10.687349,
                    53.869453
                ]
            },
            "properties": {
                "brand": "KFC",
                "opening_hours": "Mo-Th 11:00-22:00; Fr,Sa 11:00-22:00; Su 12:00-21:00",
                "amenity": "fast_food",
                "@id": "node/5749529337"
            }
        },
        {
            "type": "Feature",
            "id": "node/6033649050",
            "geometry": {
                "type": "Point",
                "coordinates": [
                    12.478498,
                    51.348622
                ]
            },
            "properties": {
                "addr:postcode": "04329",
                "brand": "KFC",
                "addr:housenumber": "1",
                "opening_hours": "Mo-Sa10:00-20:30; Su,PH off",
                "contact:website": "https://www.kfc.de/",
                "addr:city": "Leipzig",
                "amenity": "fast_food",
                "addr:street": "Paunsdorfer Allee",
                "@id": "node/6033649050"
            }
        },
        {
            "type": "Feature",
            "id": "node/6254467217",
            "geometry": {
                "type": "Point",
                "coordinates": [
                    13.455943,
                    52.465253
                ]
            },
            "properties": {
                "brand": "KFC",
                "opening_hours": "Su-Th 11:00-23:00; Fr,Sa 11:00-24:00",
                "contact:website": "http://www.kfc.de",
                "amenity": "fast_food",
                "@id": "node/6254467217"
            }
        },
        {
            "type": "Feature",
            "id": "node/6275819866",
            "geometry": {
                "type": "Point",
                "coordinates": [
                    13.502627,
                    52.460769
                ]
            },
            "properties": {
                "addr:postcode": "12439",
                "brand": "KFC",
                "addr:housenumber": "18A",
                "opening_hours": "Su-Th 11:00-23:00; Fr-Sa 11:00-24:00",
                "addr:city": "Berlin",
                "amenity": "fast_food",
                "addr:street": "Schnellerstraße",
                "@id": "node/6275819866"
            }
        },
        {
            "type": "Feature",
            "id": "node/6621555685",
            "geometry": {
                "type": "Point",
                "coordinates": [
                    8.65295,
                    50.109426
                ]
            },
            "properties": {
                "brand": "KFC",
                "opening_hours": "Mo-Sa 10:00-20:00",
                "amenity": "fast_food",
                "@id": "node/6621555685"
            }
        },
        {
            "type": "Feature",
            "id": "node/6657473478",
            "geometry": {
                "type": "Point",
                "coordinates": [
                    7.097733,
                    50.732448
                ]
            },
            "properties": {
                "brand": "KFC",
                "opening_hours": "Mo-Th 10:00-00:00; Fr, Sa 10:00-01:00; Su 10:00-22:00",
                "amenity": "fast_food",
                "@id": "node/6657473478"
            }
        },
        {
            "type": "Feature",
            "id": "node/6683828902",
            "geometry": {
                "type": "Point",
                "coordinates": [
                    12.938695,
                    50.846566
                ]
            },
            "properties": {
                "brand": "KFC",
                "amenity": "fast_food",
                "drive_through": "no",
                "@id": "node/6683828902"
            }
        },
        {
            "type": "Feature",
            "id": "node/6697053514",
            "geometry": {
                "type": "Point",
                "coordinates": [
                    13.380478,
                    52.510273
                ]
            },
            "properties": {
                "addr:postcode": "10117",
                "brand": "KFC",
                "addr:city": "Berlin",
                "amenity": "fast_food",
                "addr:street": "Leipziger Platz",
                "drive_through": "no",
                "@id": "node/6697053514"
            }
        },
        {
            "type": "Feature",
            "id": "node/6830498124",
            "geometry": {
                "type": "Point",
                "coordinates": [
                    8.532919,
                    52.025771
                ]
            },
            "properties": {
                "brand": "KFC",
                "amenity": "fast_food",
                "@id": "node/6830498124"
            }
        },
        {
            "type": "Feature",
            "id": "node/6832606789",
            "geometry": {
                "type": "Point",
                "coordinates": [
                    6.091924,
                    50.774919
                ]
            },
            "properties": {
                "brand": "KFC",
                "opening_hours": "Mo-Sa 10:00-20:00; Su,PH off",
                "amenity": "fast_food",
                "@id": "node/6832606789"
            }
        },
        {
            "type": "Feature",
            "id": "node/6945123098",
            "geometry": {
                "type": "Point",
                "coordinates": [
                    9.985375,
                    53.456916
                ]
            },
            "properties": {
                "addr:postcode": "21073",
                "brand": "KFC",
                "addr:housenumber": "1",
                "addr:city": "Hamburg",
                "amenity": "fast_food",
                "addr:street": "Moorstraße",
                "@id": "node/6945123098"
            }
        },
        {
            "type": "Feature",
            "id": "node/7014869734",
            "geometry": {
                "type": "Point",
                "coordinates": [
                    8.957619,
                    53.048613
                ]
            },
            "properties": {
                "addr:postcode": "28307",
                "brand": "KFC",
                "addr:housenumber": "19",
                "opening_hours": "Mo-Sa 10:00-20:00; PH off",
                "addr:city": "Bremen",
                "amenity": "fast_food",
                "addr:street": "Hans-Bredow-Straße",
                "@id": "node/7014869734"
            }
        },
        {
            "type": "Feature",
            "id": "node/7054501584",
            "geometry": {
                "type": "Point",
                "coordinates": [
                    6.77057,
                    51.432351
                ]
            },
            "properties": {
                "addr:postcode": "47051",
                "brand": "KFC",
                "addr:housenumber": "56",
                "opening_hours": "Mo-Th 10:00-21:30; Fr-Sa 10:00-22:30, Su 11:30-21:30",
                "addr:city": "Duisburg",
                "amenity": "fast_food",
                "addr:street": "Königstraße",
                "drive_through": "no",
                "@id": "node/7054501584"
            }
        },
        {
            "type": "Feature",
            "id": "node/7261407957",
            "geometry": {
                "type": "Point",
                "coordinates": [
                    9.147953,
                    48.921401
                ]
            },
            "properties": {
                "addr:postcode": "71634",
                "brand": "KFC",
                "addr:housenumber": "1",
                "opening_hours": "Mo-Th 10:30-24:00; Fr-Sa 10:30-01:00; Su 10:30-24:00",
                "addr:city": "Ludwigsburg",
                "amenity": "fast_food",
                "addr:street": "Maybachstraße",
                "drive_through": "yes",
                "@id": "node/7261407957"
            }
        },
        {
            "type": "Feature",
            "id": "node/8865026586",
            "geometry": {
                "type": "Point",
                "coordinates": [
                    8.841746,
                    47.760275
                ]
            },
            "properties": {
                "brand": "KFC",
                "opening_hours": "Mo-Sa 11:00-20:00",
                "amenity": "fast_food",
                "@id": "node/8865026586"
            }
        },
        {
            "type": "Feature",
            "id": "node/9249072081",
            "geometry": {
                "type": "Point",
                "coordinates": [
                    6.956218,
                    51.437804
                ]
            },
            "properties": {
                "brand": "KFC",
                "addr:city": "Mülheim an der Ruhr",
                "amenity": "fast_food",
                "@id": "node/9249072081"
            }
        },
        {
            "type": "Feature",
            "id": "node/9863781902",
            "geometry": {
                "type": "Point",
                "coordinates": [
                    8.516082,
                    51.597752
                ]
            },
            "properties": {
                "addr:postcode": "59590",
                "brand": "KFC",
                "addr:housenumber": "155",
                "opening_hours": "11:00-23:00",
                "addr:city": "Geseke",
                "amenity": "fast_food",
                "addr:street": "Bürener Straße",
                "@id": "node/9863781902"
            }
        },
        {
            "type": "Feature",
            "id": "node/9939388932",
            "geometry": {
                "type": "Point",
                "coordinates": [
                    11.903877,
                    47.827975
                ]
            },
            "properties": {
                "brand": "KFC",
                "amenity": "fast_food",
                "@id": "node/9939388932"
            }
        },
        {
            "type": "Feature",
            "id": "node/10072542535",
            "geometry": {
                "type": "Point",
                "coordinates": [
                    9.977179,
                    53.099047
                ]
            },
            "properties": {
                "addr:postcode": "29646",
                "brand": "KFC",
                "addr:housenumber": "63",
                "opening_hours": "Mo-Su 11:00-23:00",
                "addr:city": "Bispingen",
                "amenity": "fast_food",
                "addr:street": "Behringer Straße",
                "@id": "node/10072542535"
            }
        },
        {
            "type": "Feature",
            "id": "node/10170580852",
            "geometry": {
                "type": "Point",
                "coordinates": [
                    6.765455,
                    51.27921
                ]
            },
            "properties": {
                "brand": "KFC",
                "opening_hours": "PH,We,Th,Sa-Mo 10:00-24:00; Fr 10:00-18:00",
                "amenity": "fast_food",
                "drive_through": "no",
                "@id": "node/10170580852"
            }
        },
        {
            "type": "Feature",
            "id": "node/10266840913",
            "geometry": {
                "type": "Point",
                "coordinates": [
                    8.682828,
                    49.354819
                ]
            },
            "properties": {
                "brand": "KFC",
                "amenity": "fast_food",
                "@id": "node/10266840913"
            }
        },
        {
            "type": "Feature",
            "id": "node/10652790815",
            "geometry": {
                "type": "Point",
                "coordinates": [
                    13.374217,
                    52.507954
                ]
            },
            "properties": {
                "brand": "KFC",
                "amenity": "fast_food",
                "@id": "node/10652790815"
            }
        },
        {
            "type": "Feature",
            "id": "node/10808012891",
            "geometry": {
                "type": "Point",
                "coordinates": [
                    8.746141,
                    50.139617
                ]
            },
            "properties": {
                "addr:postcode": "60388",
                "brand": "KFC",
                "addr:housenumber": "33a",
                "opening_hours": "Mo-Su,PH 11:00-24:00",
                "addr:city": "Frankfurt am Main",
                "amenity": "fast_food",
                "addr:street": "Borsigallee",
                "@id": "node/10808012891"
            }
        },
        {
            "type": "Feature",
            "id": "node/11091827185",
            "geometry": {
                "type": "Point",
                "coordinates": [
                    8.072773,
                    53.523232
                ]
            },
            "properties": {
                "addr:postcode": "26389",
                "brand": "KFC",
                "addr:housenumber": "51",
                "opening_hours": "Mo-Su 11:00-23:00",
                "addr:city": "Wilhelmshaven",
                "amenity": "fast_food",
                "addr:street": "Güterstraße",
                "@id": "node/11091827185"
            }
        },
        {
            "type": "Feature",
            "id": "node/11402128929",
            "geometry": {
                "type": "Point",
                "coordinates": [
                    8.447778,
                    50.085726
                ]
            },
            "properties": {
                "brand": "KFC",
                "opening_hours": "Mo-Th 10:00-22:00; Fr,Sa 10:00-23:00; PH,Su 12:00-22:00",
                "amenity": "fast_food",
                "@id": "node/11402128929"
            }
        },
        {
            "type": "Feature",
            "id": "node/11404278021",
            "geometry": {
                "type": "Point",
                "coordinates": [
                    8.543779,
                    49.410359
                ]
            },
            "properties": {
                "brand": "KFC",
                "amenity": "fast_food",
                "@id": "node/11404278021"
            }
        },
        {
            "type": "Feature",
            "id": "node/11834410773",
            "geometry": {
                "type": "Point",
                "coordinates": [
                    8.532994,
                    49.334412
                ]
            },
            "properties": {
                "brand": "KFC",
                "amenity": "fast_food",
                "@id": "node/11834410773"
            }
        },
        {
            "type": "Feature",
            "id": "node/11889439992",
            "geometry": {
                "type": "Point",
                "coordinates": [
                    9.498738,
                    51.316566
                ]
            },
            "properties": {
                "brand": "KFC",
                "opening_hours": "Mo-Sa 11:00-20:00",
                "amenity": "fast_food",
                "@id": "node/11889439992"
            }
        },
        {
            "type": "Feature",
            "id": "node/11998718020",
            "geometry": {
                "type": "Point",
                "coordinates": [
                    8.55815,
                    50.134627
                ]
            },
            "properties": {
                "brand": "KFC",
                "opening_hours": "Su-Th,PH 11:00-24:00, Fr,Sa 11:00-01:00",
                "amenity": "fast_food",
                "@id": "node/11998718020"
            }
        },
        {
            "type": "Feature",
            "id": "node/12068618040",
            "geometry": {
                "type": "Point",
                "coordinates": [
                    8.224941,
                    53.16491
                ]
            },
            "properties": {
                "brand": "KFC",
                "opening_hours": "11:00-22:00",
                "contact:website": "https://www.kfc.de/",
                "amenity": "fast_food",
                "drive_through": "yes",
                "@id": "node/12068618040"
            }
        },
        {
            "type": "Feature",
            "id": "node/12164658618",
            "geometry": {
                "type": "Point",
                "coordinates": [
                    8.767733,
                    49.863345
                ]
            },
            "properties": {
                "addr:postcode": "64380",
                "brand": "KFC",
                "addr:housenumber": "20",
                "opening_hours": "Su-Th 11:00-23:00,Fr-Mo 11:00-00:00",
                "addr:city": "Roßdorf",
                "amenity": "fast_food",
                "addr:street": "Heinz-Friedrich-Straße",
                "@id": "node/12164658618"
            }
        },
        {
            "type": "Feature",
            "id": "node/12250431327",
            "geometry": {
                "type": "Point",
                "coordinates": [
                    11.035453,
                    50.974519
                ]
            },
            "properties": {
                "brand": "KFC",
                "addr:housenumber": "38",
                "opening_hours": "Mo-Th,Su,PH 11:00-23:00; Fr,Sa 11:00-24:00",
                "amenity": "fast_food",
                "addr:street": "Bahnhofstraße",
                "@id": "node/12250431327"
            }
        },
        {
            "type": "Feature",
            "id": "node/12284924463",
            "geometry": {
                "type": "Point",
                "coordinates": [
                    9.39392,
                    54.775127
                ]
            },
            "properties": {
                "addr:postcode": "24941",
                "brand": "KFC",
                "addr:housenumber": "4",
                "opening_hours": "Su-Th 11:00-23:00; Fr-Sa 11:00-24:00",
                "addr:city": "Flensburg",
                "amenity": "fast_food",
                "addr:street": "Lilienthalstraße",
                "drive_through": "yes",
                "@id": "node/12284924463"
            }
        },
        {
            "type": "Feature",
            "id": "node/12505425371",
            "geometry": {
                "type": "Point",
                "coordinates": [
                    8.503688,
                    49.457871
                ]
            },
            "properties": {
                "brand": "KFC",
                "opening_hours": "Mo-We,Fr-Su 11:00-23:00; Th 11:30-23:00",
                "amenity": "fast_food",
                "drive_through": "yes",
                "@id": "node/12505425371"
            }
        },
        {
            "type": "Feature",
            "id": "node/12861541750",
            "geometry": {
                "type": "Point",
                "coordinates": [
                    10.990927,
                    49.474762
                ]
            },
            "properties": {
                "brand": "KFC",
                "opening_hours": "Mo-Su 11:00-21:00",
                "amenity": "fast_food",
                "drive_through": "no",
                "@id": "node/12861541750"
            }
        },
        {
            "type": "Feature",
            "id": "node/13150843038",
            "geometry": {
                "type": "Point",
                "coordinates": [
                    7.261776,
                    52.358845
                ]
            },
            "properties": {
                "brand": "KFC",
                "amenity": "fast_food",
                "drive_through": "yes",
                "@id": "node/13150843038"
            }
        },
        {
            "type": "Feature",
            "id": "way/18083901",
            "geometry": {
                "type": "Point",
                "coordinates": [
                    8.842808,
                    53.046413
                ]
            },
            "properties": {
                "addr:postcode": "28279",
                "brand": "KFC",
                "addr:housenumber": "5",
                "opening_hours": "Su-Th 11:00-22:00; Fr,Sa 11:00-23:00",
                "addr:city": "Bremen",
                "amenity": "fast_food",
                "addr:street": "Borgwardstraße",
                "@id": "way/18083901"
            }
        },
        {
            "type": "Feature",
            "id": "way/24391823",
            "geometry": {
                "type": "Point",
                "coordinates": [
                    6.154683,
                    50.805404
                ]
            },
            "properties": {
                "addr:postcode": "52146",
                "brand": "KFC",
                "addr:housenumber": "25",
                "opening_hours": "Mo-Su,PH 11:00-23:00",
                "addr:city": "Würselen",
                "amenity": "fast_food",
                "addr:street": "Adenauerstraße",
                "drive_through": "yes",
                "@id": "way/24391823"
            }
        },
        {
            "type": "Feature",
            "id": "way/24920873",
            "geometry": {
                "type": "Point",
                "coordinates": [
                    13.326813,
                    52.561264
                ]
            },
            "properties": {
                "addr:postcode": "13405",
                "brand": "KFC",
                "addr:housenumber": "25",
                "opening_hours": "Su-Th,PH 10:00-23:00; Fr,Sa 00:00-23:00",
                "addr:city": "Berlin",
                "amenity": "fast_food",
                "addr:street": "Kurt-Schumacher-Damm",
                "@id": "way/24920873"
            }
        },
        {
            "type": "Feature",
            "id": "way/26658070",
            "geometry": {
                "type": "Point",
                "coordinates": [
                    9.006667,
                    48.703313
                ]
            },
            "properties": {
                "addr:postcode": "71065",
                "brand": "KFC",
                "addr:housenumber": "60",
                "opening_hours": "Mo-Th 10:30-24:00, Fr 10:30-02:00, Sa 10:30-02:00, Su 10:30-24:00, PH 10:30-24:00",
                "addr:city": "Sindelfingen",
                "amenity": "fast_food",
                "addr:street": "Böblinger Straße",
                "drive_through": "yes",
                "@id": "way/26658070"
            }
        },
        {
            "type": "Feature",
            "id": "way/30027922",
            "geometry": {
                "type": "Point",
                "coordinates": [
                    11.463356,
                    48.748658
                ]
            },
            "properties": {
                "addr:postcode": "85053",
                "brand": "KFC",
                "addr:housenumber": "93",
                "opening_hours": "Su-Th 10:30-24:00, Fr,Sa 10:30-01:00",
                "addr:city": "Ingolstadt",
                "amenity": "fast_food",
                "addr:street": "Manchinger Straße",
                "drive_through": "yes",
                "@id": "way/30027922"
            }
        },
        {
            "type": "Feature",
            "id": "way/30042514",
            "geometry": {
                "type": "Point",
                "coordinates": [
                    6.420707,
                    51.139725
                ]
            },
            "properties": {
                "addr:postcode": "41189",
                "brand": "KFC",
                "addr:housenumber": "141",
                "amenity": "fast_food",
                "addr:street": "Adolf-Kempken-Weg",
                "@id": "way/30042514"
            }
        },
        {
            "type": "Feature",
            "id": "way/31311699",
            "geometry": {
                "type": "Point",
                "coordinates": [
                    6.983212,
                    51.477433
                ]
            },
            "properties": {
                "addr:postcode": "45356",
                "brand": "KFC",
                "addr:housenumber": "130",
                "addr:city": "Essen",
                "amenity": "fast_food",
                "addr:street": "Bottroper Straße",
                "@id": "way/31311699"
            }
        },
        {
            "type": "Feature",
            "id": "way/31371227",
            "geometry": {
                "type": "Point",
                "coordinates": [
                    7.176933,
                    50.792656
                ]
            },
            "properties": {
                "addr:postcode": "53757",
                "brand": "KFC",
                "addr:housenumber": "3",
                "opening_hours": "Mo-Th,Su 11:00-00:00; Fr-Sa 11:00-02:00",
                "addr:city": "Sankt Augustin",
                "amenity": "fast_food",
                "addr:street": "Marie-Curie-Straße",
                "drive_through": "yes",
                "@id": "way/31371227"
            }
        },
        {
            "type": "Feature",
            "id": "way/32539945",
            "geometry": {
                "type": "Point",
                "coordinates": [
                    8.743271,
                    51.703871
                ]
            },
            "properties": {
                "addr:postcode": "33098",
                "brand": "KFC",
                "addr:housenumber": "140",
                "opening_hours": "Mo-Su 11:00-22:00",
                "addr:city": "Paderborn",
                "amenity": "fast_food",
                "addr:street": "Borchener Straße",
                "@id": "way/32539945"
            }
        },
        {
            "type": "Feature",
            "id": "way/37429752",
            "geometry": {
                "type": "Point",
                "coordinates": [
                    11.064869,
                    49.698395
                ]
            },
            "properties": {
                "addr:postcode": "91301",
                "brand": "KFC",
                "addr:housenumber": "1",
                "addr:city": "Forchheim",
                "amenity": "fast_food",
                "addr:street": "Am halben Weg",
                "drive_through": "yes",
                "@id": "way/37429752"
            }
        },
        {
            "type": "Feature",
            "id": "way/42022256",
            "geometry": {
                "type": "Point",
                "coordinates": [
                    8.790184,
                    52.206598
                ]
            },
            "properties": {
                "addr:postcode": "32545",
                "brand": "KFC",
                "addr:housenumber": "24",
                "addr:city": "Bad Oeynhausen",
                "amenity": "fast_food",
                "addr:street": "Brunnenstraße",
                "@id": "way/42022256"
            }
        },
        {
            "type": "Feature",
            "id": "way/48013130",
            "geometry": {
                "type": "Point",
                "coordinates": [
                    8.73385,
                    50.119015
                ]
            },
            "properties": {
                "addr:postcode": "60314",
                "brand": "KFC",
                "addr:housenumber": "292",
                "opening_hours": "Mo-Sa 10:00-01:00, Su,PH 10:00-24:00",
                "addr:city": "Frankfurt am Main",
                "amenity": "fast_food",
                "addr:street": "Hanauer Landstraße",
                "@id": "way/48013130"
            }
        },
        {
            "type": "Feature",
            "id": "way/48627850",
            "geometry": {
                "type": "Point",
                "coordinates": [
                    7.023951,
                    49.210076
                ]
            },
            "properties": {
                "addr:postcode": "66130",
                "brand": "KFC",
                "addr:housenumber": "6",
                "opening_hours": "Mo-Th,Su 11:30-21:30; Fr-Sa 11:30-22:30",
                "addr:city": "Saarbrücken",
                "amenity": "fast_food",
                "addr:street": "Wolfseck",
                "@id": "way/48627850"
            }
        },
        {
            "type": "Feature",
            "id": "way/49848186",
            "geometry": {
                "type": "Point",
                "coordinates": [
                    10.084449,
                    53.577347
                ]
            },
            "properties": {
                "addr:postcode": "22041",
                "brand": "KFC",
                "addr:housenumber": "127-133",
                "opening_hours": "Mo-Su 11:00-23:00; Fr,Sa 11:00-24:00",
                "addr:city": "Hamburg",
                "amenity": "fast_food",
                "addr:street": "Wandsbeker Zollstraße",
                "@id": "way/49848186"
            }
        },
        {
            "type": "Feature",
            "id": "way/51749439",
            "geometry": {
                "type": "Point",
                "coordinates": [
                    9.982387,
                    53.799181
                ]
            },
            "properties": {
                "addr:postcode": "24558",
                "brand": "KFC",
                "addr:housenumber": "2",
                "opening_hours": "Su-Th 11:00-22:00; Fr-Sa 11:00-24:00",
                "addr:city": "Henstedt-Ulzburg",
                "amenity": "fast_food",
                "addr:street": "Am Bahnbogen",
                "drive_through": "yes",
                "@id": "way/51749439"
            }
        },
        {
            "type": "Feature",
            "id": "way/52449103",
            "geometry": {
                "type": "Point",
                "coordinates": [
                    7.049832,
                    50.918034
                ]
            },
            "properties": {
                "addr:postcode": "51149",
                "brand": "KFC",
                "addr:housenumber": "101",
                "opening_hours": "Mo-Th 11:00-01:00, Fr,Sa 11:00-02:00, Su 11:00-01:00",
                "addr:city": "Köln",
                "amenity": "fast_food",
                "addr:street": "Alter Deutzer Postweg",
                "drive_through": "yes",
                "@id": "way/52449103"
            }
        },
        {
            "type": "Feature",
            "id": "way/54055222",
            "geometry": {
                "type": "Point",
                "coordinates": [
                    8.288165,
                    50.019168
                ]
            },
            "properties": {
                "addr:postcode": "55252",
                "brand": "KFC",
                "addr:housenumber": "70",
                "addr:city": "Wiesbaden",
                "amenity": "fast_food",
                "addr:street": "Boelckestraße",
                "@id": "way/54055222"
            }
        },
        {
            "type": "Feature",
            "id": "way/58993373",
            "geometry": {
                "type": "Point",
                "coordinates": [
                    8.555296,
                    52.032905
                ]
            },
            "properties": {
                "addr:postcode": "33609",
                "brand": "KFC",
                "addr:housenumber": "20",
                "opening_hours": "Su-Th 11:00-23:00, Fr-Sa 11:00-24:00",
                "contact:website": "https://www.kfc.de/",
                "addr:city": "Bielefeld",
                "amenity": "fast_food",
                "addr:street": "Eckendorfer Straße",
                "drive_through": "yes",
                "@id": "way/58993373"
            }
        },
        {
            "type": "Feature",
            "id": "way/59434255",
            "geometry": {
                "type": "Point",
                "coordinates": [
                    8.224267,
                    50.06785
                ]
            },
            "properties": {
                "addr:postcode": "65187",
                "brand": "KFC",
                "addr:housenumber": "80",
                "opening_hours": "Mo-Sa 10:30-23:00; PH,Su 11:00-23:00",
                "addr:city": "Wiesbaden",
                "amenity": "fast_food",
                "addr:street": "Schiersteiner Straße",
                "@id": "way/59434255"
            }
        },
        {
            "type": "Feature",
            "id": "way/67505057",
            "geometry": {
                "type": "Point",
                "coordinates": [
                    10.021866,
                    48.3956
                ]
            },
            "properties": {
                "addr:postcode": "89231",
                "brand": "KFC",
                "addr:housenumber": "10",
                "opening_hours": "PH,Su-Th 11:00-23:00; Fr-Sa 11:00-01:00",
                "addr:city": "Neu-Ulm",
                "amenity": "fast_food",
                "addr:street": "Pfaffenweg",
                "@id": "way/67505057"
            }
        },
        {
            "type": "Feature",
            "id": "way/83507028",
            "geometry": {
                "type": "Point",
                "coordinates": [
                    9.889707,
                    51.528719
                ]
            },
            "properties": {
                "addr:postcode": "37081",
                "brand": "KFC",
                "addr:housenumber": "28",
                "opening_hours": "Mo-Su,PH 12:00-22:00",
                "contact:website": "https://www.kfc.de/find-a-kfc/kfc-G%C3%B6ttingen-Siekweg-28",
                "addr:city": "Göttingen",
                "amenity": "fast_food",
                "addr:street": "Siekweg",
                "drive_through": "yes",
                "@id": "way/83507028"
            }
        },
        {
            "type": "Feature",
            "id": "way/87437610",
            "geometry": {
                "type": "Point",
                "coordinates": [
                    10.236921,
                    50.035595
                ]
            },
            "properties": {
                "addr:postcode": "97424",
                "brand": "KFC",
                "addr:housenumber": "14",
                "opening_hours": "Mo-Th 10:30-24:00, Fr-Sa 10:30-01:00, Su 11:00-24:00",
                "addr:city": "Schweinfurt",
                "amenity": "fast_food",
                "addr:street": "Carl-Benz-Straße",
                "@id": "way/87437610"
            }
        },
        {
            "type": "Feature",
            "id": "way/88382900",
            "geometry": {
                "type": "Point",
                "coordinates": [
                    8.171879,
                    53.159109
                ]
            },
            "properties": {
                "addr:postcode": "26129",
                "brand": "KFC",
                "addr:housenumber": "10",
                "opening_hours": "Mo-Th 10:00-23:00; Fr-Sa 10:00-24:00; Su 10:00-23:00",
                "addr:city": "Oldenburg",
                "amenity": "fast_food",
                "addr:street": "Posthalterweg",
                "drive_through": "yes",
                "@id": "way/88382900"
            }
        },
        {
            "type": "Feature",
            "id": "way/93221099",
            "geometry": {
                "type": "Point",
                "coordinates": [
                    7.258489,
                    51.501286
                ]
            },
            "properties": {
                "addr:postcode": "44805",
                "brand": "KFC",
                "addr:housenumber": "111a",
                "opening_hours": "Fr,Sa 11:00-24:00; Su-Th 11:00-23:00",
                "addr:city": "Bochum",
                "amenity": "fast_food",
                "addr:street": "Castroper Hellweg",
                "drive_through": "yes",
                "@id": "way/93221099"
            }
        },
        {
            "type": "Feature",
            "id": "way/93521946",
            "geometry": {
                "type": "Point",
                "coordinates": [
                    6.639045,
                    51.217193
                ]
            },
            "properties": {
                "addr:postcode": "41564",
                "brand": "KFC",
                "addr:housenumber": "3",
                "opening_hours": "Mo-Th 11:00-23:00; Fr,Sa 11:00-24:00; Su 11:00-23:00",
                "addr:city": "Kaarst",
                "amenity": "fast_food",
                "addr:street": "Neersener Straße",
                "@id": "way/93521946"
            }
        },
        {
            "type": "Feature",
            "id": "way/95130621",
            "geometry": {
                "type": "Point",
                "coordinates": [
                    9.837235,
                    52.42401
                ]
            },
            "properties": {
                "addr:postcode": "30916",
                "brand": "KFC",
                "addr:housenumber": "8",
                "opening_hours": "Su-Th 11:00-22:00",
                "addr:city": "Isernhagen",
                "amenity": "fast_food",
                "addr:street": "Opelstraße",
                "@id": "way/95130621"
            }
        },
        {
            "type": "Feature",
            "id": "way/102538419",
            "geometry": {
                "type": "Point",
                "coordinates": [
                    7.72519,
                    49.442521
                ]
            },
            "properties": {
                "addr:postcode": "67663",
                "brand": "KFC",
                "addr:housenumber": "23a",
                "opening_hours": "Su-Th 11:00-23:00; Fr-Sa 11:00-24:00",
                "addr:city": "Kaiserslautern",
                "amenity": "fast_food",
                "addr:street": "Merkurstraße",
                "@id": "way/102538419"
            }
        },
        {
            "type": "Feature",
            "id": "way/102841291",
            "geometry": {
                "type": "Point",
                "coordinates": [
                    9.242091,
                    50.733783
                ]
            },
            "properties": {
                "addr:postcode": "36304",
                "brand": "KFC",
                "addr:housenumber": "8",
                "addr:city": "Alsfeld",
                "amenity": "fast_food",
                "@id": "way/102841291"
            }
        },
        {
            "type": "Feature",
            "id": "way/104297016",
            "geometry": {
                "type": "Point",
                "coordinates": [
                    6.593291,
                    51.321801
                ]
            },
            "properties": {
                "addr:postcode": "47807",
                "brand": "KFC",
                "addr:housenumber": "62",
                "addr:city": "Krefeld",
                "amenity": "fast_food",
                "addr:street": "Siemesdyk",
                "@id": "way/104297016"
            }
        },
        {
            "type": "Feature",
            "id": "way/113115302",
            "geometry": {
                "type": "Point",
                "coordinates": [
                    12.110377,
                    49.028328
                ]
            },
            "properties": {
                "addr:postcode": "93059",
                "brand": "KFC",
                "addr:housenumber": "2",
                "opening_hours": "Mo-Th 10:00-24:00, Fr-Sa 10:00-01:00, Su 10:00-24:00",
                "addr:city": "Regensburg",
                "amenity": "fast_food",
                "addr:street": "Frankenstraße",
                "drive_through": "yes",
                "@id": "way/113115302"
            }
        },
        {
            "type": "Feature",
            "id": "way/118148869",
            "geometry": {
                "type": "Point",
                "coordinates": [
                    9.936847,
                    53.471283
                ]
            },
            "properties": {
                "addr:postcode": "21075",
                "brand": "KFC",
                "addr:housenumber": "200",
                "opening_hours": "Mo-Su 11:00-22:00",
                "addr:city": "Hamburg",
                "amenity": "fast_food",
                "addr:street": "Stader Straße",
                "drive_through": "yes",
                "@id": "way/118148869"
            }
        },
        {
            "type": "Feature",
            "id": "way/118387534",
            "geometry": {
                "type": "Point",
                "coordinates": [
                    13.184668,
                    52.516475
                ]
            },
            "properties": {
                "addr:postcode": "13593",
                "brand": "KFC",
                "addr:housenumber": "56",
                "opening_hours": "Mo-Su 11:00-23:00",
                "addr:city": "Berlin",
                "amenity": "fast_food",
                "addr:street": "Gatower Straße",
                "@id": "way/118387534"
            }
        },
        {
            "type": "Feature",
            "id": "way/147010693",
            "geometry": {
                "type": "Point",
                "coordinates": [
                    11.008173,
                    49.457647
                ]
            },
            "properties": {
                "brand": "KFC",
                "amenity": "fast_food",
                "@id": "way/147010693"
            }
        },
        {
            "type": "Feature",
            "id": "way/147949803",
            "geometry": {
                "type": "Point",
                "coordinates": [
                    8.695224,
                    50.113759
                ]
            },
            "properties": {
                "addr:postcode": "60314",
                "brand": "KFC",
                "addr:housenumber": "1",
                "opening_hours": "Mo-Su 11:00-23:00",
                "addr:city": "Frankfurt am Main",
                "amenity": "fast_food",
                "addr:street": "Hanauer Landstraße",
                "@id": "way/147949803"
            }
        },
        {
            "type": "Feature",
            "id": "way/151167261",
            "geometry": {
                "type": "Point",
                "coordinates": [
                    11.915423,
                    50.304552
                ]
            },
            "properties": {
                "addr:postcode": "95032",
                "brand": "KFC",
                "addr:housenumber": "1",
                "addr:city": "Hof",
                "amenity": "fast_food",
                "addr:street": "Ernst-Reuter-Straße",
                "drive_through": "yes",
                "@id": "way/151167261"
            }
        },
        {
            "type": "Feature",
            "id": "way/157395987",
            "geometry": {
                "type": "Point",
                "coordinates": [
                    10.935116,
                    48.388676
                ]
            },
            "properties": {
                "addr:postcode": "86165",
                "brand": "KFC",
                "addr:housenumber": "119",
                "opening_hours": "Su-Th 10:00-23:00, Fr-Sa 10:00-01:00",
                "addr:city": "Augsburg",
                "amenity": "fast_food",
                "addr:street": "Derchinger Straße",
                "drive_through": "yes",
                "@id": "way/157395987"
            }
        },
        {
            "type": "Feature",
            "id": "way/161241866",
            "geometry": {
                "type": "Point",
                "coordinates": [
                    6.851848,
                    50.91964
                ]
            },
            "properties": {
                "addr:postcode": "50858",
                "brand": "KFC",
                "addr:housenumber": "421",
                "opening_hours": "Su-Th 11:00-23:00; Fr-Sa 11:00-24:00",
                "addr:city": "Köln",
                "amenity": "fast_food",
                "addr:street": "Dürener Straße",
                "@id": "way/161241866"
            }
        },
        {
            "type": "Feature",
            "id": "way/165184798",
            "geometry": {
                "type": "Point",
                "coordinates": [
                    11.12576,
                    49.434236
                ]
            },
            "properties": {
                "addr:postcode": "90480",
                "brand": "KFC",
                "addr:housenumber": "298",
                "opening_hours": "Su-Th 10:00-24:00; Fr-Sa 10:00-01:00",
                "addr:city": "Nürnberg",
                "amenity": "fast_food",
                "addr:street": "Regensburger Straße",
                "@id": "way/165184798"
            }
        },
        {
            "type": "Feature",
            "id": "way/168821356",
            "geometry": {
                "type": "Point",
                "coordinates": [
                    9.232047,
                    48.779424
                ]
            },
            "properties": {
                "addr:postcode": "70327",
                "brand": "KFC",
                "addr:housenumber": "203",
                "opening_hours": "Su-Th,PH 11:00-23:00; Fr-Sa 11:00-02:00",
                "addr:city": "Stuttgart",
                "amenity": "fast_food",
                "addr:street": "Ulmer Straße",
                "drive_through": "yes",
                "@id": "way/168821356"
            }
        },
        {
            "type": "Feature",
            "id": "way/173390233",
            "geometry": {
                "type": "Point",
                "coordinates": [
                    10.505979,
                    52.31072
                ]
            },
            "properties": {
                "addr:postcode": "38112",
                "brand": "KFC",
                "addr:housenumber": "83",
                "opening_hours": "Mo-Su 11:00-23:00; Fr,Sa 11:00-24:00",
                "contact:website": "https://www.kfc.de/find-a-kfc/kfc-braunschweig-hansestr-83",
                "addr:city": "Braunschweig",
                "amenity": "fast_food",
                "addr:street": "Hansestraße",
                "drive_through": "yes",
                "@id": "way/173390233"
            }
        },
        {
            "type": "Feature",
            "id": "way/182758358",
            "geometry": {
                "type": "Point",
                "coordinates": [
                    8.70125,
                    53.012546
                ]
            },
            "properties": {
                "addr:postcode": "28816",
                "brand": "KFC",
                "addr:housenumber": "240",
                "opening_hours": "Mo-Su 10:00-24:00",
                "contact:website": "http://www.kfc.de/content/stuhr-delmenhorster-str-240",
                "addr:city": "Stuhr",
                "amenity": "fast_food",
                "addr:street": "Delmenhorster Straße",
                "@id": "way/182758358"
            }
        },
        {
            "type": "Feature",
            "id": "way/182972402",
            "geometry": {
                "type": "Point",
                "coordinates": [
                    8.487833,
                    49.475425
                ]
            },
            "properties": {
                "addr:postcode": "68165",
                "brand": "KFC",
                "addr:housenumber": "3",
                "opening_hours": "Mo-Th 10:30-24:00; Fr-Sa 10:30-01:00; Su 11:00-24:00",
                "addr:city": "Mannheim",
                "amenity": "fast_food",
                "addr:street": "Möhlstraße",
                "drive_through": "yes",
                "@id": "way/182972402"
            }
        },
        {
            "type": "Feature",
            "id": "way/196124921",
            "geometry": {
                "type": "Point",
                "coordinates": [
                    10.867046,
                    49.914018
                ]
            },
            "properties": {
                "addr:postcode": "96103",
                "brand": "KFC",
                "addr:housenumber": "37",
                "opening_hours": "Su-Th 10:30-23:00; Fr, Sa 10:30-24:00",
                "addr:city": "Hallstadt",
                "amenity": "fast_food",
                "addr:street": "Laubanger",
                "@id": "way/196124921"
            }
        },
        {
            "type": "Feature",
            "id": "way/196925398",
            "geometry": {
                "type": "Point",
                "coordinates": [
                    8.69022,
                    50.572235
                ]
            },
            "properties": {
                "addr:postcode": "35394",
                "brand": "KFC",
                "addr:housenumber": "109 A",
                "opening_hours": "Mo-Su 11:00-23:00",
                "addr:city": "Gießen",
                "amenity": "fast_food",
                "addr:street": "Schiffenberger Weg",
                "@id": "way/196925398"
            }
        },
        {
            "type": "Feature",
            "id": "way/200198651",
            "geometry": {
                "type": "Point",
                "coordinates": [
                    9.412247,
                    52.33382
                ]
            },
            "properties": {
                "addr:postcode": "30890",
                "brand": "KFC",
                "addr:housenumber": "1",
                "opening_hours": "Mo-Th,Su 11:00-23:00; Fr-Sa 11:00-24:00",
                "addr:city": "Barsinghausen",
                "amenity": "fast_food",
                "addr:street": "Schortenbreite",
                "drive_through": "yes",
                "@id": "way/200198651"
            }
        },
        {
            "type": "Feature",
            "id": "way/205681216",
            "geometry": {
                "type": "Point",
                "coordinates": [
                    8.232605,
                    49.967064
                ]
            },
            "properties": {
                "addr:postcode": "55128",
                "brand": "KFC",
                "addr:housenumber": "42",
                "opening_hours": "Mo-Sa 10:30-00:00; Su 11:00-00:00",
                "addr:city": "Mainz",
                "amenity": "fast_food",
                "addr:street": "Haifa-Allee",
                "@id": "way/205681216"
            }
        },
        {
            "type": "Feature",
            "id": "way/210497086",
            "geometry": {
                "type": "Point",
                "coordinates": [
                    7.89175,
                    49.851212
                ]
            },
            "properties": {
                "addr:postcode": "55543",
                "brand": "KFC",
                "addr:housenumber": "133",
                "opening_hours": "Mo-Su 11:00-23:00",
                "addr:city": "Bad Kreuznach",
                "amenity": "fast_food",
                "addr:street": "Schwabenheimer Weg",
                "@id": "way/210497086"
            }
        },
        {
            "type": "Feature",
            "id": "way/220526325",
            "geometry": {
                "type": "Point",
                "coordinates": [
                    9.781838,
                    52.325219
                ]
            },
            "properties": {
                "addr:postcode": "30519",
                "brand": "KFC",
                "addr:housenumber": "418",
                "opening_hours": "Su-Th 11:00-23:00; Fr-Sa 11:00-24:00",
                "addr:city": "Hannover",
                "amenity": "fast_food",
                "addr:street": "Hildesheimer Straße",
                "@id": "way/220526325"
            }
        },
        {
            "type": "Feature",
            "id": "way/224548475",
            "geometry": {
                "type": "Point",
                "coordinates": [
                    10.867636,
                    48.3712
                ]
            },
            "properties": {
                "addr:postcode": "86157",
                "brand": "KFC",
                "addr:housenumber": "6",
                "opening_hours": "Su-Th 10:00-24:00; Fr,Sa 10:00-01:00",
                "addr:city": "Augsburg",
                "amenity": "fast_food",
                "addr:street": "Flandernstraße",
                "drive_through": "yes",
                "@id": "way/224548475"
            }
        },
        {
            "type": "Feature",
            "id": "way/233304181",
            "geometry": {
                "type": "Point",
                "coordinates": [
                    8.090042,
                    50.381341
                ]
            },
            "properties": {
                "addr:postcode": "65552",
                "brand": "KFC",
                "addr:housenumber": "1",
                "addr:city": "Limburg a. d. Lahn",
                "amenity": "fast_food",
                "addr:street": "Vinzenz-Pallotti-Straße",
                "@id": "way/233304181"
            }
        },
        {
            "type": "Feature",
            "id": "way/234962912",
            "geometry": {
                "type": "Point",
                "coordinates": [
                    13.429726,
                    52.572199
                ]
            },
            "properties": {
                "addr:postcode": "13089",
                "brand": "KFC",
                "addr:housenumber": "87",
                "addr:city": "Berlin",
                "amenity": "fast_food",
                "addr:street": "Prenzlauer Promenade",
                "@id": "way/234962912"
            }
        },
        {
            "type": "Feature",
            "id": "way/239015072",
            "geometry": {
                "type": "Point",
                "coordinates": [
                    7.674439,
                    51.568508
                ]
            },
            "properties": {
                "addr:postcode": "59174",
                "brand": "KFC",
                "addr:housenumber": "9",
                "addr:city": "Kamen",
                "amenity": "fast_food",
                "addr:street": "Kamen Karree",
                "@id": "way/239015072"
            }
        },
        {
            "type": "Feature",
            "id": "way/244388502",
            "geometry": {
                "type": "Point",
                "coordinates": [
                    8.377281,
                    49.975855
                ]
            },
            "properties": {
                "addr:postcode": "65474",
                "brand": "KFC",
                "addr:housenumber": "1",
                "opening_hours": "Su-Thu 10:00-00:00, Fr-Sa 10:00-01:00",
                "addr:city": "Bischofsheim",
                "amenity": "fast_food",
                "addr:street": "Am Schindberg",
                "drive_through": "yes",
                "@id": "way/244388502"
            }
        },
        {
            "type": "Feature",
            "id": "way/253018177",
            "geometry": {
                "type": "Point",
                "coordinates": [
                    7.04037,
                    51.203938
                ]
            },
            "properties": {
                "addr:postcode": "42781",
                "brand": "KFC",
                "addr:housenumber": "58",
                "opening_hours": "Mo-Fr 11:00-24:00; Sa,Su 00:00-01:00,11:00-24:00",
                "addr:city": "Haan",
                "amenity": "fast_food",
                "addr:street": "Landstraße",
                "@id": "way/253018177"
            }
        },
        {
            "type": "Feature",
            "id": "way/257581969",
            "geometry": {
                "type": "Point",
                "coordinates": [
                    6.450906,
                    51.195057
                ]
            },
            "properties": {
                "brand": "KFC",
                "opening_hours": "Mo-Th 11:00-23:00, Fr-Sa 11:00-01:00, Su 11:00-23:00",
                "amenity": "fast_food",
                "@id": "way/257581969"
            }
        },
        {
            "type": "Feature",
            "id": "way/263821576",
            "geometry": {
                "type": "Point",
                "coordinates": [
                    7.521819,
                    50.395972
                ]
            },
            "properties": {
                "addr:postcode": "56218",
                "brand": "KFC",
                "addr:housenumber": "35",
                "opening_hours": "Mo-Su 11:00-22:00",
                "addr:city": "Mülheim-Kärlich",
                "amenity": "fast_food",
                "addr:street": "Industriestraße",
                "drive_through": "yes",
                "@id": "way/263821576"
            }
        },
        {
            "type": "Feature",
            "id": "way/284989534",
            "geometry": {
                "type": "Point",
                "coordinates": [
                    9.616646,
                    52.43027
                ]
            },
            "properties": {
                "addr:postcode": "30827",
                "brand": "KFC",
                "addr:housenumber": "3",
                "opening_hours": "Mo-Su 11:00-23:00",
                "addr:city": "Garbsen",
                "amenity": "fast_food",
                "addr:street": "Bauboulevard",
                "drive_through": "yes",
                "@id": "way/284989534"
            }
        },
        {
            "type": "Feature",
            "id": "way/298171322",
            "geometry": {
                "type": "Point",
                "coordinates": [
                    8.352079,
                    49.490386
                ]
            },
            "properties": {
                "addr:postcode": "67071",
                "brand": "KFC",
                "addr:housenumber": "17",
                "opening_hours": "Mo-Th 11:00-23:00; Fr-Sa 11:00-24:00; Su 11:00-22:00",
                "addr:city": "Ludwigshafen am Rhein",
                "amenity": "fast_food",
                "addr:street": "Flomersheimer Straße",
                "@id": "way/298171322"
            }
        },
        {
            "type": "Feature",
            "id": "way/307798754",
            "geometry": {
                "type": "Point",
                "coordinates": [
                    6.759327,
                    49.289959
                ]
            },
            "properties": {
                "addr:postcode": "66740",
                "brand": "KFC",
                "addr:housenumber": "246",
                "opening_hours": "Mo-Th 12:00-21:00, Fr 12:00-24:00, Sa 11:00-24:00, Su 12:00-23:00",
                "addr:city": "Saarlouis",
                "amenity": "fast_food",
                "addr:street": "Provinzialstraße",
                "drive_through": "yes",
                "@id": "way/307798754"
            }
        },
        {
            "type": "Feature",
            "id": "way/308648145",
            "geometry": {
                "type": "Point",
                "coordinates": [
                    6.668266,
                    51.661753
                ]
            },
            "properties": {
                "addr:postcode": "46485",
                "brand": "KFC",
                "addr:housenumber": "1",
                "addr:city": "Wesel",
                "amenity": "fast_food",
                "addr:street": "Im Buttendicksfeld",
                "@id": "way/308648145"
            }
        },
        {
            "type": "Feature",
            "id": "way/311294910",
            "geometry": {
                "type": "Point",
                "coordinates": [
                    7.931761,
                    48.469659
                ]
            },
            "properties": {
                "addr:postcode": "77656",
                "brand": "KFC",
                "addr:housenumber": "3",
                "opening_hours": "Mo-Th 11:00-23:00; Fr-Sa 11:00-24:00, Su,PH 12:00-23:00",
                "addr:city": "Offenburg",
                "amenity": "fast_food",
                "addr:street": "Heinrich-Hertz-Straße",
                "drive_through": "yes",
                "@id": "way/311294910"
            }
        },
        {
            "type": "Feature",
            "id": "way/313800496",
            "geometry": {
                "type": "Point",
                "coordinates": [
                    9.702501,
                    49.105716
                ]
            },
            "properties": {
                "addr:postcode": "74523",
                "brand": "KFC",
                "addr:housenumber": "151",
                "opening_hours": "Fr-Sa 11:00-24:00; Su,Mo,Tu,We,Th 11:00-22:00",
                "addr:city": "Schwäbisch Hall",
                "amenity": "fast_food",
                "addr:street": "Stuttgarter Straße",
                "@id": "way/313800496"
            }
        },
        {
            "type": "Feature",
            "id": "way/338170751",
            "geometry": {
                "type": "Point",
                "coordinates": [
                    8.85381,
                    47.753915
                ]
            },
            "properties": {
                "addr:postcode": "78224",
                "brand": "KFC",
                "addr:housenumber": "3",
                "opening_hours": "Mo-Th 11:00-23:00; Fr 11:00-01:00, Sa 11:00-01:00, Su 11:00-23:00; PH 11:00-23:00",
                "contact:website": "https://www.kfc.de",
                "addr:city": "Singen (Hohentwiel)",
                "amenity": "fast_food",
                "addr:street": "Franz-Sigel-Straße",
                "drive_through": "yes",
                "@id": "way/338170751"
            }
        },
        {
            "type": "Feature",
            "id": "way/373751704",
            "geometry": {
                "type": "Point",
                "coordinates": [
                    8.747083,
                    53.110266
                ]
            },
            "properties": {
                "brand": "KFC",
                "opening_hours": "Mo-Sa 10:00-21:00; Su,PH 12:00-20:00",
                "contact:website": "http://www.kfc.de/",
                "addr:city": "Bremen",
                "amenity": "fast_food",
                "@id": "way/373751704"
            }
        },
        {
            "type": "Feature",
            "id": "way/373786359",
            "geometry": {
                "type": "Point",
                "coordinates": [
                    6.80284,
                    50.651291
                ]
            },
            "properties": {
                "addr:postcode": "53879",
                "brand": "KFC",
                "addr:housenumber": "1",
                "opening_hours": "Su-Th 11:00-23:00; Fr-Sa 11:00-24:00",
                "contact:website": "http://www.kfc.de/",
                "addr:city": "Euskirchen",
                "amenity": "fast_food",
                "addr:street": "Albert-Latz-Straße",
                "drive_through": "yes",
                "@id": "way/373786359"
            }
        },
        {
            "type": "Feature",
            "id": "way/384162661",
            "geometry": {
                "type": "Point",
                "coordinates": [
                    10.633079,
                    52.312287
                ]
            },
            "properties": {
                "addr:postcode": "38165",
                "brand": "KFC",
                "addr:housenumber": "2a",
                "opening_hours": "Su-Th 10:30-24:00; Fr-Sa 10:30-01:00",
                "addr:city": "Lehre",
                "amenity": "fast_food",
                "addr:street": "In den Lohbalken",
                "@id": "way/384162661"
            }
        },
        {
            "type": "Feature",
            "id": "way/384840458",
            "geometry": {
                "type": "Point",
                "coordinates": [
                    9.297381,
                    48.821745
                ]
            },
            "properties": {
                "addr:postcode": "71332",
                "brand": "KFC",
                "addr:housenumber": "131",
                "opening_hours": "Mo-Fr 10:30-24:00; Sa,Su 00:00-01:00,10:30-24:00",
                "contact:website": "http://www.kfc.de",
                "addr:city": "Waiblingen",
                "amenity": "fast_food",
                "addr:street": "Stuttgarter Straße",
                "drive_through": "yes",
                "@id": "way/384840458"
            }
        },
        {
            "type": "Feature",
            "id": "way/399306270",
            "geometry": {
                "type": "Point",
                "coordinates": [
                    8.279858,
                    50.674986
                ]
            },
            "properties": {
                "addr:postcode": "35745",
                "brand": "KFC",
                "addr:housenumber": "1",
                "addr:city": "Herborn",
                "amenity": "fast_food",
                "addr:street": "Auf den Lüppen",
                "@id": "way/399306270"
            }
        },
        {
            "type": "Feature",
            "id": "way/404729414",
            "geometry": {
                "type": "Point",
                "coordinates": [
                    9.469147,
                    51.203922
                ]
            },
            "properties": {
                "addr:postcode": "34302",
                "brand": "KFC",
                "addr:housenumber": "8",
                "opening_hours": "Su-Th 11:00-23:00; Fr-Sa 11:00-24:00",
                "addr:city": "Guxhagen",
                "amenity": "fast_food",
                "addr:street": "Robert-Bosch-Straße",
                "drive_through": "yes",
                "@id": "way/404729414"
            }
        },
        {
            "type": "Feature",
            "id": "way/408466912",
            "geometry": {
                "type": "Point",
                "coordinates": [
                    12.39311,
                    51.401291
                ]
            },
            "properties": {
                "addr:postcode": "04356",
                "brand": "KFC",
                "addr:housenumber": "10",
                "opening_hours": "Su-Th 10:00-23:00, Fr-Sa 10:00-24:00",
                "addr:city": "Leipzig",
                "amenity": "fast_food",
                "addr:street": "Alte Dübener Landstraße",
                "drive_through": "yes",
                "@id": "way/408466912"
            }
        },
        {
            "type": "Feature",
            "id": "way/413253133",
            "geometry": {
                "type": "Point",
                "coordinates": [
                    9.934256,
                    53.552327
                ]
            },
            "properties": {
                "brand": "KFC",
                "opening_hours": "Mo-Su 10:00-23:00",
                "amenity": "fast_food",
                "drive_through": "no",
                "@id": "way/413253133"
            }
        },
        {
            "type": "Feature",
            "id": "way/428714354",
            "geometry": {
                "type": "Point",
                "coordinates": [
                    9.222325,
                    49.179927
                ]
            },
            "properties": {
                "addr:postcode": "74172",
                "brand": "KFC",
                "addr:housenumber": "5",
                "opening_hours": "Su-Th,PH 10:30-23:00, Fr,Sa 10:30-01:00",
                "addr:city": "Neckarsulm",
                "amenity": "fast_food",
                "addr:street": "Im Klauenfuß",
                "@id": "way/428714354"
            }
        },
        {
            "type": "Feature",
            "id": "way/432144616",
            "geometry": {
                "type": "Point",
                "coordinates": [
                    11.081513,
                    49.446009
                ]
            },
            "properties": {
                "addr:postcode": "90443",
                "brand": "KFC",
                "addr:housenumber": "9",
                "opening_hours": "Su-Th 09:00-24:00; Fr-Sa 09:00-01:00",
                "addr:city": "Nürnberg",
                "amenity": "fast_food",
                "addr:street": "Bahnhofsplatz",
                "@id": "way/432144616"
            }
        },
        {
            "type": "Feature",
            "id": "way/436076595",
            "geometry": {
                "type": "Point",
                "coordinates": [
                    9.738936,
                    52.3749
                ]
            },
            "properties": {
                "addr:postcode": "30159",
                "brand": "KFC",
                "addr:housenumber": "25",
                "opening_hours": "Mo-Th 10:00-23:00; Fr, Sa 10:00-24:00; Su 11:00-23:00",
                "addr:city": "Hannover",
                "amenity": "fast_food",
                "addr:street": "Niki-de-Saint-Phalle-Promenade",
                "@id": "way/436076595"
            }
        },
        {
            "type": "Feature",
            "id": "way/440792261",
            "geometry": {
                "type": "Point",
                "coordinates": [
                    8.678951,
                    50.113543
                ]
            },
            "properties": {
                "brand": "KFC",
                "opening_hours": "Su-Th 10:00-23:00; Fr,Sa 10:00-24:00",
                "amenity": "fast_food",
                "drive_through": "no",
                "@id": "way/440792261"
            }
        },
        {
            "type": "Feature",
            "id": "way/447743967",
            "geometry": {
                "type": "Point",
                "coordinates": [
                    12.19449,
                    54.114681
                ]
            },
            "properties": {
                "addr:postcode": "18182",
                "brand": "KFC",
                "addr:housenumber": "50",
                "opening_hours": "Mo-Su 11:00-22:00",
                "addr:city": "Bentwisch",
                "amenity": "fast_food",
                "addr:street": "Hansestraße",
                "@id": "way/447743967"
            }
        },
        {
            "type": "Feature",
            "id": "way/449524385",
            "geometry": {
                "type": "Point",
                "coordinates": [
                    6.81976,
                    50.992629
                ]
            },
            "properties": {
                "brand": "KFC",
                "amenity": "fast_food",
                "@id": "way/449524385"
            }
        },
        {
            "type": "Feature",
            "id": "way/469667970",
            "geometry": {
                "type": "Point",
                "coordinates": [
                    7.473364,
                    51.530778
                ]
            },
            "properties": {
                "addr:postcode": "44145",
                "brand": "KFC",
                "addr:housenumber": "207",
                "opening_hours": "Mo-Su 11:00-23:00; Fr,Sa 11:00-24:00",
                "addr:city": "Dortmund",
                "amenity": "fast_food",
                "addr:street": "Bornstraße",
                "@id": "way/469667970"
            }
        },
        {
            "type": "Feature",
            "id": "way/477461962",
            "geometry": {
                "type": "Point",
                "coordinates": [
                    10.471423,
                    49.767046
                ]
            },
            "properties": {
                "addr:postcode": "96160",
                "brand": "KFC",
                "addr:housenumber": "17",
                "opening_hours": "Mo-Su 09:00-23:00",
                "addr:city": "Geiselwind",
                "amenity": "fast_food",
                "addr:street": "Scheinfelder Straße",
                "drive_through": "yes",
                "@id": "way/477461962"
            }
        },
        {
            "type": "Feature",
            "id": "way/490414547",
            "geometry": {
                "type": "Point",
                "coordinates": [
                    6.958611,
                    50.942821
                ]
            },
            "properties": {
                "brand": "KFC",
                "opening_hours": "Su-Th 10:00-24:00, Fr,Sa 10:00-03:00",
                "amenity": "fast_food",
                "drive_through": "no",
                "@id": "way/490414547"
            }
        },
        {
            "type": "Feature",
            "id": "way/513157507",
            "geometry": {
                "type": "Point",
                "coordinates": [
                    8.888183,
                    49.244085
                ]
            },
            "properties": {
                "addr:postcode": "74889",
                "brand": "KFC",
                "addr:housenumber": "29",
                "opening_hours": "Mo-Su,PH 10:30-24:00",
                "addr:city": "Sinsheim",
                "amenity": "fast_food",
                "addr:street": "Neulandstraße",
                "drive_through": "yes",
                "@id": "way/513157507"
            }
        },
        {
            "type": "Feature",
            "id": "way/513945813",
            "geometry": {
                "type": "Point",
                "coordinates": [
                    7.223169,
                    51.479054
                ]
            },
            "properties": {
                "addr:postcode": "44787",
                "brand": "KFC",
                "addr:housenumber": "13-15",
                "opening_hours": "Su-Th 11:00-23:00; Fr,Sa 11:00-24:00",
                "addr:city": "Bochum",
                "amenity": "fast_food",
                "addr:street": "Kurt-Schumacher-Platz",
                "@id": "way/513945813"
            }
        },
        {
            "type": "Feature",
            "id": "way/532752643",
            "geometry": {
                "type": "Point",
                "coordinates": [
                    7.748276,
                    50.482985
                ]
            },
            "properties": {
                "addr:postcode": "56424",
                "brand": "KFC",
                "addr:housenumber": "6",
                "opening_hours": "Su-Th 11:00-23:00; Fr-Sa 11:00-24:00",
                "contact:website": "https://www.kfc.de",
                "addr:city": "Mogendorf",
                "amenity": "fast_food",
                "addr:street": "Im Reimersheck",
                "@id": "way/532752643"
            }
        },
        {
            "type": "Feature",
            "id": "way/539248516",
            "geometry": {
                "type": "Point",
                "coordinates": [
                    8.244412,
                    50.07079
                ]
            },
            "properties": {
                "brand": "KFC",
                "opening_hours": "Mo-Su 10:00-22:00",
                "amenity": "fast_food",
                "@id": "way/539248516"
            }
        },
        {
            "type": "Feature",
            "id": "way/548586657",
            "geometry": {
                "type": "Point",
                "coordinates": [
                    11.326371,
                    49.567193
                ]
            },
            "properties": {
                "brand": "KFC",
                "opening_hours": "Mo-Su 10:00-23:00",
                "amenity": "fast_food",
                "drive_through": "yes",
                "@id": "way/548586657"
            }
        },
        {
            "type": "Feature",
            "id": "way/571829429",
            "geometry": {
                "type": "Point",
                "coordinates": [
                    8.660573,
                    48.90149
                ]
            },
            "properties": {
                "brand": "KFC",
                "addr:housenumber": "6",
                "addr:city": "Pforzheim",
                "amenity": "fast_food",
                "addr:street": "Julius-Moser-Straße",
                "@id": "way/571829429"
            }
        },
        {
            "type": "Feature",
            "id": "way/593751583",
            "geometry": {
                "type": "Point",
                "coordinates": [
                    9.706965,
                    50.488667
                ]
            },
            "properties": {
                "addr:postcode": "36124",
                "brand": "KFC",
                "addr:housenumber": "3",
                "opening_hours": "10:00-23:00; Fr,Sa 10:00-00:00",
                "addr:city": "Eichenzell",
                "amenity": "fast_food",
                "addr:street": "Rhönhof",
                "drive_through": "yes",
                "@id": "way/593751583"
            }
        },
        {
            "type": "Feature",
            "id": "way/634421168",
            "geometry": {
                "type": "Point",
                "coordinates": [
                    7.634684,
                    51.956836
                ]
            },
            "properties": {
                "brand": "KFC",
                "opening_hours": "Su-Th 11:00-22:30, Fr,Sa 11:00-24:00",
                "amenity": "fast_food",
                "@id": "way/634421168"
            }
        },
        {
            "type": "Feature",
            "id": "way/733736739",
            "geometry": {
                "type": "Point",
                "coordinates": [
                    10.007569,
                    53.553184
                ]
            },
            "properties": {
                "brand": "KFC",
                "opening_hours": "Su-Th 10:00-23:00, Fr,Sa 10:00-02:00",
                "addr:city": "Hamburg",
                "amenity": "fast_food",
                "@id": "way/733736739"
            }
        },
        {
            "type": "Feature",
            "id": "way/743728551",
            "geometry": {
                "type": "Point",
                "coordinates": [
                    8.502626,
                    48.082917
                ]
            },
            "properties": {
                "addr:postcode": "78052",
                "brand": "KFC",
                "addr:housenumber": "2",
                "opening_hours": "11:00-23:00; Fr,Sa 11:00-01:00",
                "addr:city": "Villingen-Schwenningen",
                "amenity": "fast_food",
                "addr:street": "Nunnensteig",
                "drive_through": "yes",
                "@id": "way/743728551"
            }
        },
        {
            "type": "Feature",
            "id": "way/765031915",
            "geometry": {
                "type": "Point",
                "coordinates": [
                    8.359817,
                    49.626592
                ]
            },
            "properties": {
                "brand": "KFC",
                "addr:housenumber": "6A",
                "opening_hours": "Mo-Su 11:00-23:00; Fr,Sa 11:00-24:00",
                "addr:city": "Worms",
                "amenity": "fast_food",
                "addr:street": "Schönauer Straße",
                "drive_through": "yes",
                "@id": "way/765031915"
            }
        },
        {
            "type": "Feature",
            "id": "way/785155452",
            "geometry": {
                "type": "Point",
                "coordinates": [
                    11.456855,
                    48.165974
                ]
            },
            "properties": {
                "addr:postcode": "81247",
                "brand": "KFC",
                "addr:housenumber": "99",
                "addr:city": "München",
                "amenity": "fast_food",
                "addr:street": "Pippinger Straße",
                "@id": "way/785155452"
            }
        },
        {
            "type": "Feature",
            "id": "way/833428808",
            "geometry": {
                "type": "Point",
                "coordinates": [
                    11.583174,
                    48.507997
                ]
            },
            "properties": {
                "addr:postcode": "85301",
                "brand": "KFC",
                "addr:housenumber": "7b",
                "opening_hours": "Mo-Fr 11:00-24:00; Sa,Su 10:30-24:00",
                "addr:city": "Schweitenkirchen",
                "amenity": "fast_food",
                "addr:street": "Robert-Koch-Straße",
                "@id": "way/833428808"
            }
        },
        {
            "type": "Feature",
            "id": "way/877949141",
            "geometry": {
                "type": "Point",
                "coordinates": [
                    7.824953,
                    49.922553
                ]
            },
            "properties": {
                "addr:postcode": "55444",
                "brand": "KFC",
                "addr:housenumber": "17",
                "opening_hours": "Mo-Su 11:00-23:00",
                "addr:city": "Waldlaubersheim",
                "amenity": "fast_food",
                "addr:street": "Lohrgraben",
                "drive_through": "yes",
                "@id": "way/877949141"
            }
        },
        {
            "type": "Feature",
            "id": "way/910156677",
            "geometry": {
                "type": "Point",
                "coordinates": [
                    8.402949,
                    49.006788
                ]
            },
            "properties": {
                "brand": "KFC",
                "opening_hours": "Mo-Sa 10:00-20:00; Su,PH off",
                "amenity": "fast_food",
                "@id": "way/910156677"
            }
        },
        {
            "type": "Feature",
            "id": "way/955074959",
            "geometry": {
                "type": "Point",
                "coordinates": [
                    11.789883,
                    48.146424
                ]
            },
            "properties": {
                "addr:postcode": "85599",
                "brand": "KFC",
                "addr:housenumber": "8",
                "addr:city": "Vaterstetten",
                "amenity": "fast_food",
                "addr:street": "Am Lerchenfeld",
                "@id": "way/955074959"
            }
        },
        {
            "type": "Feature",
            "id": "way/1008840829",
            "geometry": {
                "type": "Point",
                "coordinates": [
                    9.084432,
                    54.493346
                ]
            },
            "properties": {
                "addr:postcode": "25813",
                "brand": "KFC",
                "addr:housenumber": "28a",
                "opening_hours": "Su-Th 10:30-24:00; Fr,Sa 10:30-01:00",
                "addr:city": "Husum",
                "amenity": "fast_food",
                "addr:street": "Robert-Koch-Straße",
                "drive_through": "yes",
                "@id": "way/1008840829"
            }
        },
        {
            "type": "Feature",
            "id": "way/1013850631",
            "geometry": {
                "type": "Point",
                "coordinates": [
                    7.172264,
                    49.341354
                ]
            },
            "properties": {
                "addr:postcode": "66538",
                "brand": "KFC",
                "addr:housenumber": "2a",
                "opening_hours": "Mo-Su 11:00-23:00",
                "addr:city": "Neunkirchen",
                "amenity": "fast_food",
                "addr:street": "Westspange",
                "drive_through": "yes",
                "@id": "way/1013850631"
            }
        },
        {
            "type": "Feature",
            "id": "way/1013857880",
            "geometry": {
                "type": "Point",
                "coordinates": [
                    10.984743,
                    50.286736
                ]
            },
            "properties": {
                "addr:postcode": "96450",
                "brand": "KFC",
                "addr:housenumber": "16",
                "opening_hours": "Mo-Su 11:00-23:00",
                "addr:city": "Coburg",
                "amenity": "fast_food",
                "addr:street": "Niorter Straße",
                "drive_through": "yes",
                "@id": "way/1013857880"
            }
        },
        {
            "type": "Feature",
            "id": "way/1016180557",
            "geometry": {
                "type": "Point",
                "coordinates": [
                    7.301288,
                    52.672556
                ]
            },
            "properties": {
                "brand": "KFC",
                "amenity": "fast_food",
                "@id": "way/1016180557"
            }
        },
        {
            "type": "Feature",
            "id": "way/1029952969",
            "geometry": {
                "type": "Point",
                "coordinates": [
                    9.941471,
                    54.069484
                ]
            },
            "properties": {
                "brand": "KFC",
                "opening_hours": "Mo-Su 11:00-23:00",
                "amenity": "fast_food",
                "@id": "way/1029952969"
            }
        },
        {
            "type": "Feature",
            "id": "way/1030993822",
            "geometry": {
                "type": "Point",
                "coordinates": [
                    6.141642,
                    51.799924
                ]
            },
            "properties": {
                "addr:postcode": "47533",
                "brand": "KFC",
                "addr:housenumber": "5",
                "opening_hours": "11:00-23:00",
                "addr:city": "Kleve",
                "amenity": "fast_food",
                "addr:street": "Klever Ring",
                "@id": "way/1030993822"
            }
        },
        {
            "type": "Feature",
            "id": "way/1104654681",
            "geometry": {
                "type": "Point",
                "coordinates": [
                    6.525695,
                    49.953857
                ]
            },
            "properties": {
                "brand": "KFC",
                "amenity": "fast_food",
                "@id": "way/1104654681"
            }
        },
        {
            "type": "Feature",
            "id": "way/1110796943",
            "geometry": {
                "type": "Point",
                "coordinates": [
                    10.032833,
                    53.573894
                ]
            },
            "properties": {
                "brand": "KFC",
                "opening_hours": "Mo-Sa 10:00-20:00",
                "amenity": "fast_food",
                "@id": "way/1110796943"
            }
        },
        {
            "type": "Feature",
            "id": "way/1117329048",
            "geometry": {
                "type": "Point",
                "coordinates": [
                    9.231291,
                    48.481391
                ]
            },
            "properties": {
                "addr:postcode": "72800",
                "brand": "KFC",
                "addr:housenumber": "143",
                "opening_hours": "Mo-Th 11:00-00:00; Fr 11:00-01:00; Sa 11:00-01:00; Su 11:00-00:00; PH 11:00-00:00",
                "addr:city": "Eningen unter Achalm",
                "amenity": "fast_food",
                "addr:street": "Reutlinger Straße",
                "drive_through": "yes",
                "@id": "way/1117329048"
            }
        },
        {
            "type": "Feature",
            "id": "way/1202408909",
            "geometry": {
                "type": "Point",
                "coordinates": [
                    10.174609,
                    47.997848
                ]
            },
            "properties": {
                "addr:postcode": "87700",
                "brand": "KFC",
                "addr:housenumber": "6",
                "opening_hours": "Su-Th 11:00-23:00; Fr-Sa 11:00-01:00",
                "addr:city": "Memmingen",
                "amenity": "fast_food",
                "addr:street": "Dr.-Karl-Lenz-Straße",
                "@id": "way/1202408909"
            }
        },
        {
            "type": "Feature",
            "id": "way/1352634203",
            "geometry": {
                "type": "Point",
                "coordinates": [
                    12.125939,
                    47.846711
                ]
            },
            "properties": {
                "addr:postcode": "83026",
                "brand": "KFC",
                "addr:housenumber": "71",
                "opening_hours": "Su-Th 10:00-24:00; Fr-Sa 10:00-01:00",
                "addr:city": "Rosenheim",
                "amenity": "fast_food",
                "addr:street": "Kufsteiner Straße",
                "drive_through": "yes",
                "@id": "way/1352634203"
            }
        },
        {
            "type": "Feature",
            "id": "way/1364237052",
            "geometry": {
                "type": "Point",
                "coordinates": [
                    12.863877,
                    50.86051
                ]
            },
            "properties": {
                "addr:postcode": "09247",
                "brand": "KFC",
                "addr:housenumber": "4",
                "addr:city": "Chemnitz",
                "amenity": "fast_food",
                "addr:street": "Haydnstraße",
                "@id": "way/1364237052"
            }
        },
        {
            "type": "Feature",
            "id": "way/1390558742",
            "geometry": {
                "type": "Point",
                "coordinates": [
                    11.460858,
                    53.88525
                ]
            },
            "properties": {
                "brand": "KFC",
                "amenity": "fast_food",
                "@id": "way/1390558742"
            }
        },
        {
            "type": "Feature",
            "id": "way/1415949392",
            "geometry": {
                "type": "Point",
                "coordinates": [
                    9.676816,
                    48.697811
                ]
            },
            "properties": {
                "addr:postcode": "73037",
                "brand": "KFC",
                "addr:housenumber": "2",
                "opening_hours": "Su-Tu,Th 11:00-23:00; We 12:00-20:00; Fr,Sa 11:00-01:00",
                "addr:city": "Göppingen",
                "amenity": "fast_food",
                "addr:street": "Reutlinger Straße",
                "drive_through": "yes",
                "@id": "way/1415949392"
            }
        },
        {
            "type": "Feature",
            "id": "way/1423291887",
            "geometry": {
                "type": "Point",
                "coordinates": [
                    8.370893,
                    48.99071
                ]
            },
            "properties": {
                "addr:postcode": "76135",
                "brand": "KFC",
                "addr:housenumber": "36",
                "addr:city": "Karlsruhe",
                "amenity": "fast_food",
                "addr:street": "Pulverhausstraße",
                "@id": "way/1423291887"
            }
        },
        {
            "type": "Feature",
            "id": "relation/7204190",
            "geometry": {
                "type": "Point",
                "coordinates": [
                    6.990552,
                    49.240734
                ]
            },
            "properties": {
                "addr:postcode": "66111",
                "brand": "KFC",
                "addr:housenumber": "6-12",
                "opening_hours": "Mo-Th,Su 11:00-22:00; Fr-Sa 11:00-23:00",
                "addr:city": "Saarbrücken",
                "amenity": "fast_food",
                "addr:street": "Am Hauptbahnhof",
                "@id": "relation/7204190"
            }
        }
    ]
}