{
    "type": "FeatureCollection",
    "features": [
        {
            "type": "Feature",
            "id": "node/66917199",
            "geometry": {
                "type": "Point",
                "coordinates": [
                    13.388738,
                    52.519403
                ]
            },
            "properties": {
                "brand": "Starbucks",
                "amenity": "cafe",
                "opening_hours": "Mo-Fr 07:00-21:00; Sa 08:00-21:00; Su 09:00-19:30",
                "@id": "node/66917199"
            }
        },
        {
            "type": "Feature",
            "id": "node/66917229",
            "geometry": {
                "type": "Point",
                "coordinates": [
                    13.379773,
                    52.516729
                ]
            },
            "properties": {
                "brand": "Starbucks",
                "addr:street": "Pariser Platz",
                "addr:postcode": "10117",
                "amenity": "cafe",
                "opening_hours": "Mo-Fr 08:00-21:00; Sa,Su 09:00-21:00",
                "addr:city": "Berlin",
                "addr:housenumber": "4A",
                "@id": "node/66917229"
            }
        },
        {
            "type": "Feature",
            "id": "node/87040343",
            "geometry": {
                "type": "Point",
                "coordinates": [
                    13.390018,
                    52.511072
                ]
            },
            "properties": {
                "brand": "Starbucks",
                "addr:street": "Friedrichstraße",
                "addr:postcode": "10117",
                "amenity": "cafe",
                "opening_hours": "Mo-Fr 07:00-20:00; Sa 08:00-20:00; Su 09:00-19:00",
                "addr:city": "Berlin",
                "addr:housenumber": "61",
                "@id": "node/87040343"
            }
        },
        {
            "type": "Feature",
            "id": "node/270140640",
            "geometry": {
                "type": "Point",
                "coordinates": [
                    7.219141,
                    51.480214
                ]
            },
            "properties": {
                "brand": "Starbucks",
                "addr:street": "Dr.-Ruer-Platz",
                "contact:website": "https://www.starbucks.de/store-locator/store/1018854/dr-ruer-platz-dr-ruer-platz-6-7-bochum-nw-44787-de",
                "addr:postcode": "44787",
                "amenity": "cafe",
                "opening_hours": "Mo-Fr 07:00-20:30; Fr-Su,PH 08:00-20:30",
                "addr:city": "Bochum",
                "addr:housenumber": "7",
                "@id": "node/270140640"
            }
        },
        {
            "type": "Feature",
            "id": "node/272529037",
            "geometry": {
                "type": "Point",
                "coordinates": [
                    11.585543,
                    48.158838
                ]
            },
            "properties": {
                "brand": "Starbucks",
                "addr:street": "Leopoldstraße",
                "addr:postcode": "80802",
                "amenity": "cafe",
                "opening_hours": "Mo-Th 06:30-21:30; Fr 06:30-22:00; Sa 08:00-22:00; Su,PH 08:00-21:30",
                "addr:city": "München",
                "addr:housenumber": "56",
                "@id": "node/272529037"
            }
        },
        {
            "type": "Feature",
            "id": "node/276909580",
            "geometry": {
                "type": "Point",
                "coordinates": [
                    11.578162,
                    48.143056
                ]
            },
            "properties": {
                "brand": "Starbucks",
                "addr:street": "Odeonsplatz",
                "addr:postcode": "80539",
                "amenity": "cafe",
                "opening_hours": "Mo-Th 07:00-21:00; Fr 07:00-22:00; Sa 08:00-21:00; Su,PH 08:30-21:00",
                "addr:city": "München",
                "addr:housenumber": "15",
                "@id": "node/276909580"
            }
        },
        {
            "type": "Feature",
            "id": "node/302080713",
            "geometry": {
                "type": "Point",
                "coordinates": [
                    7.099243,
                    50.734908
                ]
            },
            "properties": {
                "brand": "Starbucks",
                "addr:street": "Münsterplatz",
                "addr:postcode": "53111",
                "amenity": "cafe",
                "opening_hours": "Mo-Fr 08:00-21:00; Sa,Su 11:00-19:00",
                "addr:city": "Bonn",
                "addr:housenumber": "21",
                "@id": "node/302080713"
            }
        },
        {
            "type": "Feature",
            "id": "node/308989411",
            "geometry": {
                "type": "Point",
                "coordinates": [
                    11.076509,
                    49.453079
                ]
            },
            "properties": {
                "brand": "Starbucks",
                "addr:street": "Hauptmarkt",
                "addr:postcode": "90403",
                "amenity": "cafe",
                "opening_hours": "Mo-Su 08:00-20:30",
                "addr:city": "Nürnberg",
                "addr:housenumber": "1",
                "@id": "node/308989411"
            }
        },
        {
            "type": "Feature",
            "id": "node/359862708",
            "geometry": {
                "type": "Point",
                "coordinates": [
                    6.949373,
                    50.936241
                ]
            },
            "properties": {
                "brand": "Starbucks",
                "amenity": "cafe",
                "opening_hours": "Mo-Fr 07:00-21:00; Sa 08:30-21:00; Su,PH 10:00-20:00",
                "@id": "node/359862708"
            }
        },
        {
            "type": "Feature",
            "id": "node/367146906",
            "geometry": {
                "type": "Point",
                "coordinates": [
                    7.852578,
                    47.997242
                ]
            },
            "properties": {
                "brand": "Starbucks",
                "contact:website": "http://www.starbucks.de",
                "addr:postcode": "79098",
                "amenity": "cafe",
                "opening_hours": "Mo-Fr 07:00-20:30; Sa 08:00-21:00; Su 10:00-19:00; PH 10:00-19:00",
                "@id": "node/367146906"
            }
        },
        {
            "type": "Feature",
            "id": "node/370046297",
            "geometry": {
                "type": "Point",
                "coordinates": [
                    7.467032,
                    51.513533
                ]
            },
            "properties": {
                "brand": "Starbucks",
                "amenity": "cafe",
                "opening_hours": "Su 10:00-21:00; Mo-Fr 07:30-21:00; Sa 09:00-21:00; PH 10:00-18:00",
                "addr:city": "Dortmund",
                "@id": "node/370046297"
            }
        },
        {
            "type": "Feature",
            "id": "node/399216246",
            "geometry": {
                "type": "Point",
                "coordinates": [
                    10.926492,
                    49.582258
                ]
            },
            "properties": {
                "brand": "Starbucks",
                "amenity": "cafe",
                "opening_hours": "24/7",
                "@id": "node/399216246"
            }
        },
        {
            "type": "Feature",
            "id": "node/412645535",
            "geometry": {
                "type": "Point",
                "coordinates": [
                    6.940459,
                    50.940745
                ]
            },
            "properties": {
                "brand": "Starbucks",
                "addr:street": "Hohenzollernring",
                "addr:postcode": "50672",
                "amenity": "cafe",
                "opening_hours": "Mo-Sa 07:00-21:00; Su 09:00-21:00",
                "addr:city": "Köln",
                "addr:housenumber": "72",
                "@id": "node/412645535"
            }
        },
        {
            "type": "Feature",
            "id": "node/414896587",
            "geometry": {
                "type": "Point",
                "coordinates": [
                    6.794953,
                    51.219118
                ]
            },
            "properties": {
                "brand": "Starbucks",
                "amenity": "cafe",
                "opening_hours": "Mo-Su,PH 06:00-21:00",
                "@id": "node/414896587"
            }
        },
        {
            "type": "Feature",
            "id": "node/473017200",
            "geometry": {
                "type": "Point",
                "coordinates": [
                    8.04716,
                    52.273375
                ]
            },
            "properties": {
                "brand": "Starbucks",
                "amenity": "cafe",
                "opening_hours": "Mo-Fr 09:00-19:00; Sa,Su 12:00-18:00",
                "@id": "node/473017200"
            }
        },
        {
            "type": "Feature",
            "id": "node/506178240",
            "geometry": {
                "type": "Point",
                "coordinates": [
                    13.735843,
                    51.044944
                ]
            },
            "properties": {
                "brand": "Starbucks",
                "addr:street": "Prager Straße",
                "addr:postcode": "01069",
                "amenity": "cafe",
                "opening_hours": "Mo-Fr 08:30-21:00; Sa 09:00-21:00; Su,PH 09:00-20:30; Dec 24 07:30-17:00; Dec 25,Dec 26 10:00-17:00; Dec 31 07:30-19:00; Jan 01 10:00-20:00",
                "addr:city": "Dresden",
                "addr:housenumber": "15",
                "@id": "node/506178240"
            }
        },
        {
            "type": "Feature",
            "id": "node/510617252",
            "geometry": {
                "type": "Point",
                "coordinates": [
                    9.987809,
                    53.548711
                ]
            },
            "properties": {
                "brand": "Starbucks",
                "amenity": "cafe",
                "opening_hours": "Mo-Fr 07:00-19:00; Sa,Su 08:30-19:00; PH 10:00-18:00",
                "@id": "node/510617252"
            }
        },
        {
            "type": "Feature",
            "id": "node/578649519",
            "geometry": {
                "type": "Point",
                "coordinates": [
                    9.219945,
                    49.140983
                ]
            },
            "properties": {
                "brand": "Starbucks",
                "amenity": "cafe",
                "@id": "node/578649519"
            }
        },
        {
            "type": "Feature",
            "id": "node/599314036",
            "geometry": {
                "type": "Point",
                "coordinates": [
                    11.579875,
                    48.138087
                ]
            },
            "properties": {
                "brand": "Starbucks",
                "amenity": "cafe",
                "drive_through": "no",
                "opening_hours": "Mo-Fr 07:30-20:00; Sa 08:30-21:00; Su 09:30-19:30",
                "@id": "node/599314036"
            }
        },
        {
            "type": "Feature",
            "id": "node/635884679",
            "geometry": {
                "type": "Point",
                "coordinates": [
                    6.957642,
                    50.936383
                ]
            },
            "properties": {
                "brand": "Starbucks",
                "amenity": "cafe",
                "@id": "node/635884679"
            }
        },
        {
            "type": "Feature",
            "id": "node/664298649",
            "geometry": {
                "type": "Point",
                "coordinates": [
                    8.632741,
                    50.15685
                ]
            },
            "properties": {
                "brand": "Starbucks",
                "addr:street": "Limescorso",
                "addr:postcode": "60439",
                "amenity": "cafe",
                "opening_hours": "Mo-Sa 09:00-20:30",
                "addr:city": "Frankfurt am Main",
                "addr:housenumber": "8",
                "@id": "node/664298649"
            }
        },
        {
            "type": "Feature",
            "id": "node/674447564",
            "geometry": {
                "type": "Point",
                "coordinates": [
                    8.650675,
                    49.872375
                ]
            },
            "properties": {
                "brand": "Starbucks",
                "addr:street": "Luisenplatz",
                "addr:postcode": "64283",
                "amenity": "cafe",
                "opening_hours": "Mo-Th 07:00-19:00; Fr 07:00-21:30; Sa 08:30-21:30; Su,PH 11:00-18:00",
                "addr:city": "Darmstadt",
                "addr:housenumber": "4",
                "@id": "node/674447564"
            }
        },
        {
            "type": "Feature",
            "id": "node/701541172",
            "geometry": {
                "type": "Point",
                "coordinates": [
                    11.575289,
                    48.135387
                ]
            },
            "properties": {
                "brand": "Starbucks",
                "addr:street": "Rosental",
                "contact:website": "https://www.starbucks.de/",
                "addr:postcode": "80331",
                "amenity": "cafe",
                "opening_hours": "Mo-Fr 07:00-19:00; Sa 08:30-21:00; Su 10:00-19:00",
                "addr:city": "München",
                "addr:housenumber": "7",
                "@id": "node/701541172"
            }
        },
        {
            "type": "Feature",
            "id": "node/792640022",
            "geometry": {
                "type": "Point",
                "coordinates": [
                    11.0766,
                    49.451082
                ]
            },
            "properties": {
                "brand": "Starbucks",
                "addr:street": "Karolinenstraße",
                "addr:postcode": "90402",
                "amenity": "cafe",
                "opening_hours": "Mo-Th 07:30-20:30; Fr,Sa 07:30-21:00; Su,PH 11:30-19:00",
                "addr:city": "Nürnberg",
                "addr:housenumber": "12",
                "@id": "node/792640022"
            }
        },
        {
            "type": "Feature",
            "id": "node/818639212",
            "geometry": {
                "type": "Point",
                "coordinates": [
                    7.12212,
                    50.877675
                ]
            },
            "properties": {
                "brand": "Starbucks",
                "amenity": "cafe",
                "opening_hours": "Mo-Su,PH 06:00-21:00",
                "@id": "node/818639212"
            }
        },
        {
            "type": "Feature",
            "id": "node/846974057",
            "geometry": {
                "type": "Point",
                "coordinates": [
                    8.564325,
                    49.52662
                ]
            },
            "properties": {
                "brand": "Starbucks",
                "amenity": "cafe",
                "opening_hours": "Mo-Sa 10:30-18:00",
                "@id": "node/846974057"
            }
        },
        {
            "type": "Feature",
            "id": "node/905750369",
            "geometry": {
                "type": "Point",
                "coordinates": [
                    9.177884,
                    48.778807
                ]
            },
            "properties": {
                "brand": "Starbucks",
                "addr:street": "Königstraße",
                "amenity": "cafe",
                "opening_hours": "Mo-Sa 08:00-22:00; Su 10:00-21:00; PH 10:00-21:00",
                "addr:city": "Stuttgart",
                "addr:housenumber": "28",
                "@id": "node/905750369"
            }
        },
        {
            "type": "Feature",
            "id": "node/911019620",
            "geometry": {
                "type": "Point",
                "coordinates": [
                    11.56649,
                    48.139432
                ]
            },
            "properties": {
                "brand": "Starbucks",
                "amenity": "cafe",
                "opening_hours": "Mo-Sa 08:00-20:30; PH,Su 10:00-19:00",
                "@id": "node/911019620"
            }
        },
        {
            "type": "Feature",
            "id": "node/915299603",
            "geometry": {
                "type": "Point",
                "coordinates": [
                    13.737923,
                    51.049009
                ]
            },
            "properties": {
                "brand": "Starbucks",
                "addr:street": "Altmarkt",
                "addr:postcode": "01067",
                "amenity": "cafe",
                "opening_hours": "08:00-20:00",
                "addr:city": "Dresden",
                "addr:housenumber": "7",
                "@id": "node/915299603"
            }
        },
        {
            "type": "Feature",
            "id": "node/921135566",
            "geometry": {
                "type": "Point",
                "coordinates": [
                    8.673779,
                    50.114884
                ]
            },
            "properties": {
                "brand": "Starbucks",
                "amenity": "cafe",
                "opening_hours": "Mo-Sa 07:00-21:00, Su,PH 08:30-19:30, Sa 07:30-21:00",
                "@id": "node/921135566"
            }
        },
        {
            "type": "Feature",
            "id": "node/934145237",
            "geometry": {
                "type": "Point",
                "coordinates": [
                    9.176053,
                    48.776466
                ]
            },
            "properties": {
                "brand": "Starbucks",
                "addr:street": "Königstraße",
                "addr:postcode": "70173",
                "amenity": "cafe",
                "opening_hours": "Mo-Sa 07:00-22:00; Su,PH 10:00-21:00",
                "addr:city": "Stuttgart",
                "addr:housenumber": "44",
                "@id": "node/934145237"
            }
        },
        {
            "type": "Feature",
            "id": "node/964653356",
            "geometry": {
                "type": "Point",
                "coordinates": [
                    8.525531,
                    50.119985
                ]
            },
            "properties": {
                "brand": "Starbucks",
                "addr:street": "Main-Taunus-Zentrum",
                "addr:postcode": "65843",
                "amenity": "cafe",
                "opening_hours": "Mo-Th 10:00-20:00; Fr-Sa 10:00-22:00",
                "addr:city": "Sulzbach (Taunus)",
                "@id": "node/964653356"
            }
        },
        {
            "type": "Feature",
            "id": "node/975312193",
            "geometry": {
                "type": "Point",
                "coordinates": [
                    13.402087,
                    52.523193
                ]
            },
            "properties": {
                "brand": "Starbucks",
                "addr:street": "Neue Promenade",
                "addr:postcode": "10178",
                "amenity": "cafe",
                "opening_hours": "Mo-Fr 07:30-21:00; Sa-Su 08:30-21:00",
                "addr:city": "Berlin",
                "addr:housenumber": "3",
                "@id": "node/975312193"
            }
        },
        {
            "type": "Feature",
            "id": "node/1069813904",
            "geometry": {
                "type": "Point",
                "coordinates": [
                    8.532671,
                    52.022646
                ]
            },
            "properties": {
                "brand": "Starbucks",
                "addr:street": "Niedernstraße",
                "addr:postcode": "33602",
                "amenity": "cafe",
                "opening_hours": "Mo-Sa 07:30-21:00; Su 10:00-20:00",
                "addr:city": "Bielefeld",
                "addr:housenumber": "41",
                "@id": "node/1069813904"
            }
        },
        {
            "type": "Feature",
            "id": "node/1209279036",
            "geometry": {
                "type": "Point",
                "coordinates": [
                    8.46924,
                    49.486434
                ]
            },
            "properties": {
                "brand": "Starbucks",
                "amenity": "cafe",
                "opening_hours": "Mo-Fr 07:00-21:00; Sa 08:00-21:00; Su,PH 10:00-20:00",
                "@id": "node/1209279036"
            }
        },
        {
            "type": "Feature",
            "id": "node/1273423924",
            "geometry": {
                "type": "Point",
                "coordinates": [
                    7.842531,
                    47.998229
                ]
            },
            "properties": {
                "brand": "Starbucks",
                "amenity": "cafe",
                "opening_hours": "Mo-Th 06:00-20:30, Fr 06:00-21:00, Sa 07:00-21:00; Su 08:00-21:30; Dec 24 06:00-14:00; Jan 1,Dec 25-26 08:00-19:00; Dec 31 07:00-18:30; Jan 6 08:00-20:30",
                "@id": "node/1273423924"
            }
        },
        {
            "type": "Feature",
            "id": "node/1333407149",
            "geometry": {
                "type": "Point",
                "coordinates": [
                    8.674784,
                    50.110561
                ]
            },
            "properties": {
                "brand": "Starbucks",
                "addr:street": "Kaiserstraße",
                "addr:postcode": "60311",
                "amenity": "cafe",
                "opening_hours": "Mo-Th 07:00-20:00; Fr 07:00-20:30; Sa 09:00-20:30; Su 09:00-20:00",
                "addr:city": "Frankfurt am Main",
                "addr:housenumber": "20",
                "@id": "node/1333407149"
            }
        },
        {
            "type": "Feature",
            "id": "node/1341316048",
            "geometry": {
                "type": "Point",
                "coordinates": [
                    6.957623,
                    50.942885
                ]
            },
            "properties": {
                "brand": "Starbucks",
                "addr:street": "Trankgasse",
                "addr:postcode": "50667",
                "amenity": "cafe",
                "opening_hours": "Mo-Sa 05:30-22:00; Su,PH 07:00-22:00",
                "addr:city": "Köln",
                "addr:housenumber": "11",
                "@id": "node/1341316048"
            }
        },
        {
            "type": "Feature",
            "id": "node/1441732624",
            "geometry": {
                "type": "Point",
                "coordinates": [
                    11.645475,
                    48.100931
                ]
            },
            "properties": {
                "brand": "Starbucks",
                "addr:street": "Ollenhauerstraße",
                "addr:postcode": "81737",
                "amenity": "cafe",
                "opening_hours": "Mo-Fr 07:00-20:30; Sa 09:00-20:30; Su,PH 10:00-17:30",
                "addr:city": "München",
                "addr:housenumber": "6",
                "@id": "node/1441732624"
            }
        },
        {
            "type": "Feature",
            "id": "node/1539266290",
            "geometry": {
                "type": "Point",
                "coordinates": [
                    11.072621,
                    49.451062
                ]
            },
            "properties": {
                "brand": "Starbucks",
                "addr:street": "Hefnersplatz",
                "addr:postcode": "90402",
                "amenity": "cafe",
                "opening_hours": "Mo-Fr 10:00-20:00",
                "addr:city": "Nürnberg",
                "addr:housenumber": "10",
                "@id": "node/1539266290"
            }
        },
        {
            "type": "Feature",
            "id": "node/1539815077",
            "geometry": {
                "type": "Point",
                "coordinates": [
                    8.706262,
                    49.411754
                ]
            },
            "properties": {
                "brand": "Starbucks",
                "amenity": "cafe",
                "opening_hours": "Mo-Th 07:30-21:00; Fr-Sa 09:00-23:00; Su 09:00-21:00",
                "@id": "node/1539815077"
            }
        },
        {
            "type": "Feature",
            "id": "node/1561371106",
            "geometry": {
                "type": "Point",
                "coordinates": [
                    9.990998,
                    53.555035
                ]
            },
            "properties": {
                "brand": "Starbucks",
                "addr:street": "Neuer Jungfernstieg",
                "addr:postcode": "20354",
                "amenity": "cafe",
                "opening_hours": "Mo-Fr 07:30-20:00; Sa 07:30-21:00; Su 08:30-21:00; PH 08:30-21:00",
                "addr:housenumber": "5",
                "@id": "node/1561371106"
            }
        },
        {
            "type": "Feature",
            "id": "node/1577039696",
            "geometry": {
                "type": "Point",
                "coordinates": [
                    6.719269,
                    51.201455
                ]
            },
            "properties": {
                "brand": "Starbucks",
                "addr:street": "Breslauer Straße",
                "addr:postcode": "41460",
                "amenity": "cafe",
                "opening_hours": "Mo-Sa 08:00-20:30",
                "addr:city": "Neuss",
                "addr:housenumber": "2",
                "@id": "node/1577039696"
            }
        },
        {
            "type": "Feature",
            "id": "node/1580476563",
            "geometry": {
                "type": "Point",
                "coordinates": [
                    7.142665,
                    50.722969
                ]
            },
            "properties": {
                "brand": "Starbucks",
                "addr:street": "Landgrabenweg",
                "addr:postcode": "53227",
                "amenity": "cafe",
                "opening_hours": "Mo-Fr 08:00-18:00",
                "addr:city": "Bonn",
                "addr:housenumber": "149",
                "@id": "node/1580476563"
            }
        },
        {
            "type": "Feature",
            "id": "node/1706189129",
            "geometry": {
                "type": "Point",
                "coordinates": [
                    11.986837,
                    51.47774
                ]
            },
            "properties": {
                "brand": "Starbucks",
                "addr:street": "Hans-Dietrich-Genscher-Platz",
                "addr:postcode": "06112",
                "amenity": "cafe",
                "opening_hours": "Mo-Su 06:00-20:00",
                "addr:city": "Halle (Saale)",
                "addr:housenumber": "1",
                "@id": "node/1706189129"
            }
        },
        {
            "type": "Feature",
            "id": "node/1859967243",
            "geometry": {
                "type": "Point",
                "coordinates": [
                    8.572438,
                    50.050462
                ]
            },
            "properties": {
                "brand": "Starbucks",
                "addr:postcode": "60549",
                "amenity": "cafe",
                "opening_hours": "24/7",
                "addr:city": "Frankfurt am Main",
                "@id": "node/1859967243"
            }
        },
        {
            "type": "Feature",
            "id": "node/1882589613",
            "geometry": {
                "type": "Point",
                "coordinates": [
                    13.333334,
                    52.503958
                ]
            },
            "properties": {
                "brand": "Starbucks",
                "addr:street": "Kurfürstendamm",
                "addr:postcode": "10719",
                "amenity": "cafe",
                "opening_hours": "Mo-Fr 07:30-21:00; Sa 08:30-22:00; Su 09:00-19:00",
                "addr:city": "Berlin",
                "addr:housenumber": "231",
                "@id": "node/1882589613"
            }
        },
        {
            "type": "Feature",
            "id": "node/1896283367",
            "geometry": {
                "type": "Point",
                "coordinates": [
                    9.925453,
                    52.982454
                ]
            },
            "properties": {
                "brand": "Starbucks",
                "addr:street": "Rahrsberg",
                "addr:postcode": "29614",
                "amenity": "cafe",
                "opening_hours": "Mo-Sa 10:00-20:00",
                "addr:city": "Soltau",
                "addr:housenumber": "7",
                "@id": "node/1896283367"
            }
        },
        {
            "type": "Feature",
            "id": "node/1912857426",
            "geometry": {
                "type": "Point",
                "coordinates": [
                    9.993498,
                    53.55134
                ]
            },
            "properties": {
                "brand": "Starbucks",
                "amenity": "cafe",
                "opening_hours": "Mo-Fr 07:00-21:00; Sa 08:00-21:00; Su 09:30-20:00",
                "@id": "node/1912857426"
            }
        },
        {
            "type": "Feature",
            "id": "node/2131605569",
            "geometry": {
                "type": "Point",
                "coordinates": [
                    12.381426,
                    51.344481
                ]
            },
            "properties": {
                "brand": "Starbucks",
                "addr:street": "Willy-Brandt-Platz",
                "addr:postcode": "04109",
                "amenity": "cafe",
                "opening_hours": "Mo-Fr 05:00-20:30; PH,Sa-Su 06:00-20:30",
                "addr:city": "Leipzig",
                "addr:housenumber": "7",
                "@id": "node/2131605569"
            }
        },
        {
            "type": "Feature",
            "id": "node/2133523045",
            "geometry": {
                "type": "Point",
                "coordinates": [
                    8.686523,
                    50.114931
                ]
            },
            "properties": {
                "brand": "Starbucks",
                "amenity": "cafe",
                "opening_hours": "Mo-Fr 07:00-21:00; Sa 08:00-21:00; Su,PH 08:30-20:00",
                "@id": "node/2133523045"
            }
        },
        {
            "type": "Feature",
            "id": "node/2145619320",
            "geometry": {
                "type": "Point",
                "coordinates": [
                    6.990856,
                    49.238097
                ]
            },
            "properties": {
                "brand": "Starbucks",
                "addr:street": "Bahnhofstraße",
                "addr:postcode": "66111",
                "amenity": "cafe",
                "opening_hours": "Mo-Fr 07:00-20:30; Sa 08:00-22:00; PH,Su 09:00-20:00",
                "addr:city": "Saarbrücken",
                "addr:housenumber": "103",
                "@id": "node/2145619320"
            }
        },
        {
            "type": "Feature",
            "id": "node/2244962365",
            "geometry": {
                "type": "Point",
                "coordinates": [
                    8.678367,
                    50.114675
                ]
            },
            "properties": {
                "brand": "Starbucks",
                "addr:street": "Börsenplatz",
                "addr:postcode": "60313",
                "amenity": "cafe",
                "opening_hours": "Mo-Sa 07:00-21:00; PH,Su 08:00-20:00",
                "addr:city": "Frankfurt am Main",
                "addr:housenumber": "1",
                "@id": "node/2244962365"
            }
        },
        {
            "type": "Feature",
            "id": "node/2467927693",
            "geometry": {
                "type": "Point",
                "coordinates": [
                    8.807289,
                    53.075201
                ]
            },
            "properties": {
                "brand": "Starbucks",
                "amenity": "cafe",
                "opening_hours": "Mo-Fr 07:30-19:30; Sa 08:00-19:30; Su 09:00-18:30; PH 10:00-17:00",
                "@id": "node/2467927693"
            }
        },
        {
            "type": "Feature",
            "id": "node/2484400651",
            "geometry": {
                "type": "Point",
                "coordinates": [
                    13.457758,
                    48.573926
                ]
            },
            "properties": {
                "brand": "Starbucks",
                "addr:street": "Ludwigsplatz",
                "addr:postcode": "94032",
                "amenity": "cafe",
                "addr:city": "Passau",
                "addr:housenumber": "8",
                "@id": "node/2484400651"
            }
        },
        {
            "type": "Feature",
            "id": "node/2500054664",
            "geometry": {
                "type": "Point",
                "coordinates": [
                    13.732115,
                    51.040556
                ]
            },
            "properties": {
                "brand": "Starbucks",
                "amenity": "cafe",
                "opening_hours": "Mo-Fr 05:00-20:00; Sa-Su 07:00-20:00",
                "@id": "node/2500054664"
            }
        },
        {
            "type": "Feature",
            "id": "node/2916390816",
            "geometry": {
                "type": "Point",
                "coordinates": [
                    12.374431,
                    51.338707
                ]
            },
            "properties": {
                "brand": "Starbucks",
                "addr:street": "Petersstraße",
                "addr:postcode": "04109",
                "amenity": "cafe",
                "opening_hours": "Mo-Fr 07:00-20:00; Sa 08:00-20:00; Su 09:30-20:00",
                "addr:city": "Leipzig",
                "addr:housenumber": "22-24",
                "@id": "node/2916390816"
            }
        },
        {
            "type": "Feature",
            "id": "node/2984033232",
            "geometry": {
                "type": "Point",
                "coordinates": [
                    6.835092,
                    50.93781
                ]
            },
            "properties": {
                "brand": "Starbucks",
                "amenity": "cafe",
                "opening_hours": "Mo-Sa 09:30-20:00; Su off",
                "@id": "node/2984033232"
            }
        },
        {
            "type": "Feature",
            "id": "node/3050914053",
            "geometry": {
                "type": "Point",
                "coordinates": [
                    6.764767,
                    51.27907
                ]
            },
            "properties": {
                "brand": "Starbucks",
                "amenity": "cafe",
                "opening_hours": "Mo-Su,PH 05:30-22:00+",
                "@id": "node/3050914053"
            }
        },
        {
            "type": "Feature",
            "id": "node/3126120930",
            "geometry": {
                "type": "Point",
                "coordinates": [
                    12.37343,
                    51.342554
                ]
            },
            "properties": {
                "brand": "Starbucks",
                "addr:street": "Hainstraße",
                "addr:postcode": "04109",
                "amenity": "cafe",
                "opening_hours": "Mo-Sa 08:00-20:00; Su 11:30-18:00",
                "addr:city": "Leipzig",
                "addr:housenumber": "16-18",
                "@id": "node/3126120930"
            }
        },
        {
            "type": "Feature",
            "id": "node/3128052459",
            "geometry": {
                "type": "Point",
                "coordinates": [
                    9.183019,
                    48.790963
                ]
            },
            "properties": {
                "brand": "Starbucks",
                "amenity": "cafe",
                "opening_hours": "Mo-Th 08:00-20:00; Fr 08:00-21:30; Sa 08:00-20:00; Su, Ph 10:00-19:00",
                "@id": "node/3128052459"
            }
        },
        {
            "type": "Feature",
            "id": "node/3136353405",
            "geometry": {
                "type": "Point",
                "coordinates": [
                    8.65239,
                    50.109297
                ]
            },
            "properties": {
                "brand": "Starbucks",
                "amenity": "cafe",
                "opening_hours": "Mo-Fr 08:00-20:00; Sa 09:00-21:00; Su 09:00-18:00",
                "@id": "node/3136353405"
            }
        },
        {
            "type": "Feature",
            "id": "node/3147983431",
            "geometry": {
                "type": "Point",
                "coordinates": [
                    8.958818,
                    53.049673
                ]
            },
            "properties": {
                "brand": "Starbucks",
                "addr:street": "Hans-Bredow-Straße",
                "addr:postcode": "28307",
                "amenity": "cafe",
                "opening_hours": "Mo-Sa 10:00-20:00; PH off",
                "addr:city": "Bremen",
                "addr:housenumber": "19",
                "@id": "node/3147983431"
            }
        },
        {
            "type": "Feature",
            "id": "node/3270657591",
            "geometry": {
                "type": "Point",
                "coordinates": [
                    6.875806,
                    51.489858
                ]
            },
            "properties": {
                "brand": "Starbucks",
                "amenity": "cafe",
                "@id": "node/3270657591"
            }
        },
        {
            "type": "Feature",
            "id": "node/3321108784",
            "geometry": {
                "type": "Point",
                "coordinates": [
                    8.573604,
                    50.050864
                ]
            },
            "properties": {
                "brand": "Starbucks",
                "amenity": "cafe",
                "@id": "node/3321108784"
            }
        },
        {
            "type": "Feature",
            "id": "node/3364591760",
            "geometry": {
                "type": "Point",
                "coordinates": [
                    10.134492,
                    54.320695
                ]
            },
            "properties": {
                "brand": "Starbucks",
                "amenity": "cafe",
                "opening_hours": "Mo-Fr 09:00-19:00; Sa 09:30-19:30; Su 10:00-18:00; PH 09:00-17:30",
                "@id": "node/3364591760"
            }
        },
        {
            "type": "Feature",
            "id": "node/3366923018",
            "geometry": {
                "type": "Point",
                "coordinates": [
                    9.862047,
                    53.571028
                ]
            },
            "properties": {
                "brand": "Starbucks",
                "amenity": "cafe",
                "opening_hours": "Mo-Sa 10:00-20:00",
                "@id": "node/3366923018"
            }
        },
        {
            "type": "Feature",
            "id": "node/3455614578",
            "geometry": {
                "type": "Point",
                "coordinates": [
                    13.31278,
                    52.500988
                ]
            },
            "properties": {
                "brand": "Starbucks",
                "addr:street": "Kurfürstendamm",
                "addr:postcode": "10707",
                "amenity": "cafe",
                "opening_hours": "Mo-Fr 08:00-19:00; Sa 09:00-19:00; PH,Su 09:30-19:00",
                "addr:city": "Berlin",
                "addr:housenumber": "61",
                "@id": "node/3455614578"
            }
        },
        {
            "type": "Feature",
            "id": "node/3584258650",
            "geometry": {
                "type": "Point",
                "coordinates": [
                    10.906837,
                    48.365538
                ]
            },
            "properties": {
                "brand": "Starbucks",
                "amenity": "cafe",
                "opening_hours": "Mo-Sa 09:00-20:00",
                "@id": "node/3584258650"
            }
        },
        {
            "type": "Feature",
            "id": "node/3775017520",
            "geometry": {
                "type": "Point",
                "coordinates": [
                    9.152105,
                    48.921646
                ]
            },
            "properties": {
                "brand": "Starbucks",
                "addr:street": "Heinkelstraße",
                "amenity": "cafe",
                "addr:city": "Ludwigsburg",
                "addr:housenumber": "1",
                "@id": "node/3775017520"
            }
        },
        {
            "type": "Feature",
            "id": "node/3898898397",
            "geometry": {
                "type": "Point",
                "coordinates": [
                    7.10181,
                    50.735237
                ]
            },
            "properties": {
                "brand": "Starbucks",
                "addr:street": "Markt",
                "addr:postcode": "53111",
                "amenity": "cafe",
                "drive_through": "no",
                "opening_hours": "Mo-Fr 08:00-21:00; Sa 08:30-21:00; Su,PH 10:00-20:00",
                "addr:city": "Bonn",
                "addr:housenumber": "13-21",
                "@id": "node/3898898397"
            }
        },
        {
            "type": "Feature",
            "id": "node/3987051075",
            "geometry": {
                "type": "Point",
                "coordinates": [
                    13.415226,
                    52.519587
                ]
            },
            "properties": {
                "brand": "Starbucks",
                "amenity": "cafe",
                "opening_hours": "Mo-Sa 09:00-20:00",
                "@id": "node/3987051075"
            }
        },
        {
            "type": "Feature",
            "id": "node/4125308894",
            "geometry": {
                "type": "Point",
                "coordinates": [
                    7.00532,
                    51.459035
                ]
            },
            "properties": {
                "brand": "Starbucks",
                "addr:street": "Limbecker Platz",
                "addr:postcode": "45127",
                "amenity": "cafe",
                "opening_hours": "Mo-Sa 09:00-20:00",
                "addr:city": "Essen",
                "@id": "node/4125308894"
            }
        },
        {
            "type": "Feature",
            "id": "node/4144595692",
            "geometry": {
                "type": "Point",
                "coordinates": [
                    7.588739,
                    49.446116
                ]
            },
            "properties": {
                "brand": "Starbucks",
                "addr:street": "Harmon Ave.",
                "amenity": "cafe",
                "@id": "node/4144595692"
            }
        },
        {
            "type": "Feature",
            "id": "node/4158117691",
            "geometry": {
                "type": "Point",
                "coordinates": [
                    10.006316,
                    53.631235
                ]
            },
            "properties": {
                "brand": "Starbucks",
                "amenity": "cafe",
                "opening_hours": "Su-Fr 07:30-14:30; Sa off",
                "@id": "node/4158117691"
            }
        },
        {
            "type": "Feature",
            "id": "node/4388936224",
            "geometry": {
                "type": "Point",
                "coordinates": [
                    13.411599,
                    52.52125
                ]
            },
            "properties": {
                "brand": "Starbucks",
                "amenity": "cafe",
                "opening_hours": "Mo-Fr 06:00-21:00; Sa 07:00-21:00; Su,PH 08:00-21:00",
                "@id": "node/4388936224"
            }
        },
        {
            "type": "Feature",
            "id": "node/4412854430",
            "geometry": {
                "type": "Point",
                "coordinates": [
                    7.433859,
                    50.59884
                ]
            },
            "properties": {
                "brand": "Starbucks",
                "amenity": "cafe",
                "@id": "node/4412854430"
            }
        },
        {
            "type": "Feature",
            "id": "node/4430951953",
            "geometry": {
                "type": "Point",
                "coordinates": [
                    8.672841,
                    50.58371
                ]
            },
            "properties": {
                "brand": "Starbucks",
                "amenity": "cafe",
                "opening_hours": "Mo-Fr 08:00-20:00, Samstag 09:00-20:00",
                "@id": "node/4430951953"
            }
        },
        {
            "type": "Feature",
            "id": "node/4508943489",
            "geometry": {
                "type": "Point",
                "coordinates": [
                    6.780354,
                    51.225437
                ]
            },
            "properties": {
                "brand": "Starbucks",
                "addr:street": "Schadowstraße",
                "addr:postcode": "40212",
                "amenity": "cafe",
                "opening_hours": "Mo-Fr 08:00-20:00; Sa 08:30-20:00; Su 12:00-18:00",
                "addr:city": "Düsseldorf",
                "addr:housenumber": "11",
                "@id": "node/4508943489"
            }
        },
        {
            "type": "Feature",
            "id": "node/4558523992",
            "geometry": {
                "type": "Point",
                "coordinates": [
                    7.458965,
                    51.514038
                ]
            },
            "properties": {
                "brand": "Starbucks",
                "amenity": "cafe",
                "opening_hours": "Mo-Th 08:00-20:00; Fr,Sa 08:00-20:30",
                "@id": "node/4558523992"
            }
        },
        {
            "type": "Feature",
            "id": "node/4579194756",
            "geometry": {
                "type": "Point",
                "coordinates": [
                    8.47006,
                    49.479419
                ]
            },
            "properties": {
                "brand": "Starbucks",
                "amenity": "cafe",
                "opening_hours": "Mo-Su,PH 06:30-20:00",
                "@id": "node/4579194756"
            }
        },
        {
            "type": "Feature",
            "id": "node/4745105692",
            "geometry": {
                "type": "Point",
                "coordinates": [
                    6.824139,
                    51.213354
                ]
            },
            "properties": {
                "brand": "Starbucks",
                "addr:street": "Erkrather Straße",
                "addr:postcode": "40231",
                "amenity": "cafe",
                "addr:city": "Düsseldorf",
                "addr:housenumber": "364",
                "@id": "node/4745105692"
            }
        },
        {
            "type": "Feature",
            "id": "node/4995827593",
            "geometry": {
                "type": "Point",
                "coordinates": [
                    7.223254,
                    50.43996
                ]
            },
            "properties": {
                "brand": "Starbucks",
                "amenity": "cafe",
                "opening_hours": "24/7",
                "@id": "node/4995827593"
            }
        },
        {
            "type": "Feature",
            "id": "node/5265416060",
            "geometry": {
                "type": "Point",
                "coordinates": [
                    12.130267,
                    54.088603
                ]
            },
            "properties": {
                "brand": "Starbucks",
                "addr:street": "Kröpeliner Straße",
                "addr:postcode": "18055",
                "amenity": "cafe",
                "opening_hours": "Mo-Sa 09:30-20:00; Su 12:00-18:00",
                "addr:city": "Rostock",
                "addr:housenumber": "54",
                "@id": "node/5265416060"
            }
        },
        {
            "type": "Feature",
            "id": "node/5656734350",
            "geometry": {
                "type": "Point",
                "coordinates": [
                    8.567386,
                    49.162025
                ]
            },
            "properties": {
                "brand": "Starbucks",
                "addr:postcode": "76694",
                "amenity": "cafe",
                "opening_hours": "Mo-Th 08:00-19:00; Fr-Su 08:00-20:00",
                "addr:city": "Forst",
                "@id": "node/5656734350"
            }
        },
        {
            "type": "Feature",
            "id": "node/5713812746",
            "geometry": {
                "type": "Point",
                "coordinates": [
                    8.238595,
                    50.081459
                ]
            },
            "properties": {
                "brand": "Starbucks",
                "addr:street": "Kirchgasse",
                "addr:postcode": "65183",
                "amenity": "cafe",
                "addr:city": "Wiesbaden",
                "addr:housenumber": "35-43",
                "@id": "node/5713812746"
            }
        },
        {
            "type": "Feature",
            "id": "node/5897238570",
            "geometry": {
                "type": "Point",
                "coordinates": [
                    9.992259,
                    48.399084
                ]
            },
            "properties": {
                "brand": "Starbucks",
                "addr:street": "Münsterplatz",
                "contact:website": "https://www.starbucks.de",
                "addr:postcode": "89073",
                "amenity": "cafe",
                "opening_hours": "Mo 08:00-21:00; Tu 08:00-21:00; We 07:00-21:00; Th 08:00-21:00; Fr 08:00-22:00; Sa 07:00-22:00; Su 09:30-21:00",
                "addr:city": "Ulm",
                "addr:housenumber": "16",
                "@id": "node/5897238570"
            }
        },
        {
            "type": "Feature",
            "id": "node/5917965145",
            "geometry": {
                "type": "Point",
                "coordinates": [
                    10.895005,
                    48.36625
                ]
            },
            "properties": {
                "brand": "Starbucks",
                "addr:street": "Bürgermeister-Fischer-Straße",
                "addr:postcode": "86150",
                "amenity": "cafe",
                "opening_hours": "Mo-Th 07:30-21:30; Fr 07:30-22:30; Sa 08:00-22:00; Su 09:00-20:30",
                "addr:city": "Augsburg",
                "addr:housenumber": "11",
                "@id": "node/5917965145"
            }
        },
        {
            "type": "Feature",
            "id": "node/6063853525",
            "geometry": {
                "type": "Point",
                "coordinates": [
                    11.556023,
                    48.143078
                ]
            },
            "properties": {
                "brand": "Starbucks",
                "addr:street": "Arnulfstraße",
                "addr:postcode": "80335",
                "amenity": "cafe",
                "opening_hours": "Mo-Sa 07:00-20:00; Su,PH off",
                "addr:city": "München",
                "addr:housenumber": "34",
                "@id": "node/6063853525"
            }
        },
        {
            "type": "Feature",
            "id": "node/6202878876",
            "geometry": {
                "type": "Point",
                "coordinates": [
                    11.589122,
                    48.553845
                ]
            },
            "properties": {
                "brand": "Starbucks",
                "amenity": "cafe",
                "@id": "node/6202878876"
            }
        },
        {
            "type": "Feature",
            "id": "node/6482259204",
            "geometry": {
                "type": "Point",
                "coordinates": [
                    7.766295,
                    49.444623
                ]
            },
            "properties": {
                "brand": "Starbucks",
                "amenity": "cafe",
                "@id": "node/6482259204"
            }
        },
        {
            "type": "Feature",
            "id": "node/6499800974",
            "geometry": {
                "type": "Point",
                "coordinates": [
                    11.46181,
                    48.149087
                ]
            },
            "properties": {
                "brand": "Starbucks",
                "amenity": "cafe",
                "opening_hours": "Mo-Sa 08:00-20:00; Su 10:00-18:00",
                "@id": "node/6499800974"
            }
        },
        {
            "type": "Feature",
            "id": "node/6588859242",
            "geometry": {
                "type": "Point",
                "coordinates": [
                    13.331626,
                    52.505701
                ]
            },
            "properties": {
                "brand": "Starbucks",
                "addr:street": "Joachimsthaler Straße",
                "addr:postcode": "10623",
                "amenity": "cafe",
                "opening_hours": "Mo-Th 07:30-20:30; Fr 08:00-21:00; Sa 09:00-21:00; Su 10:30-20:00",
                "addr:city": "Berlin",
                "addr:housenumber": "1-4",
                "@id": "node/6588859242"
            }
        },
        {
            "type": "Feature",
            "id": "node/6654710063",
            "geometry": {
                "type": "Point",
                "coordinates": [
                    9.280097,
                    48.537012
                ]
            },
            "properties": {
                "brand": "Starbucks",
                "addr:street": "Hugo-Boss-Platz",
                "addr:postcode": "72555",
                "amenity": "cafe",
                "opening_hours": "Mo-Fr 09:00-21:00, Sa 08:00-21:00, Su 10:00-18:00; PH off",
                "addr:city": "Metzingen",
                "addr:housenumber": "6",
                "@id": "node/6654710063"
            }
        },
        {
            "type": "Feature",
            "id": "node/6832552984",
            "geometry": {
                "type": "Point",
                "coordinates": [
                    6.092343,
                    50.775235
                ]
            },
            "properties": {
                "brand": "Starbucks",
                "amenity": "cafe",
                "opening_hours": "Mo-Sa 08:30-21:00; Su 10:00-18:30",
                "@id": "node/6832552984"
            }
        },
        {
            "type": "Feature",
            "id": "node/6853875161",
            "geometry": {
                "type": "Point",
                "coordinates": [
                    10.525015,
                    52.262159
                ]
            },
            "properties": {
                "brand": "Starbucks",
                "amenity": "cafe",
                "opening_hours": "Mo-Fr 08:00-20:00; Sa 11:00-18:00; Su 12:00-18:00",
                "@id": "node/6853875161"
            }
        },
        {
            "type": "Feature",
            "id": "node/7005835554",
            "geometry": {
                "type": "Point",
                "coordinates": [
                    7.828664,
                    50.443357
                ]
            },
            "properties": {
                "brand": "Starbucks",
                "addr:street": "Am Fashion Outlet",
                "addr:postcode": "56410",
                "amenity": "cafe",
                "addr:city": "Montabaur",
                "@id": "node/7005835554"
            }
        },
        {
            "type": "Feature",
            "id": "node/7132010681",
            "geometry": {
                "type": "Point",
                "coordinates": [
                    13.449798,
                    52.506382
                ]
            },
            "properties": {
                "brand": "Starbucks",
                "contact:website": "https://www.starbucks.de/",
                "amenity": "cafe",
                "opening_hours": "Mo-Fr 06:00-21:00; Su 07:00-21:00; Sa 07:00-22:00",
                "@id": "node/7132010681"
            }
        },
        {
            "type": "Feature",
            "id": "node/7931120539",
            "geometry": {
                "type": "Point",
                "coordinates": [
                    11.354547,
                    49.041099
                ]
            },
            "properties": {
                "brand": "Starbucks",
                "amenity": "cafe",
                "opening_hours": "24/7",
                "@id": "node/7931120539"
            }
        },
        {
            "type": "Feature",
            "id": "node/8532643407",
            "geometry": {
                "type": "Point",
                "coordinates": [
                    7.404977,
                    49.230257
                ]
            },
            "properties": {
                "brand": "Starbucks",
                "amenity": "cafe",
                "@id": "node/8532643407"
            }
        },
        {
            "type": "Feature",
            "id": "node/8749880560",
            "geometry": {
                "type": "Point",
                "coordinates": [
                    8.805781,
                    53.028424
                ]
            },
            "properties": {
                "brand": "Starbucks",
                "addr:street": "Bremer Straße",
                "addr:postcode": "28816",
                "amenity": "cafe",
                "opening_hours": "Mo-Sa 10:00- 16:00",
                "addr:city": "Stuhr",
                "addr:housenumber": "103",
                "@id": "node/8749880560"
            }
        },
        {
            "type": "Feature",
            "id": "node/8780343407",
            "geometry": {
                "type": "Point",
                "coordinates": [
                    9.939676,
                    53.716766
                ]
            },
            "properties": {
                "brand": "Starbucks",
                "amenity": "cafe",
                "opening_hours": "Mo-Fr 09:00-17:00; Sa 06:00-19:00; Su 08:00-19:00",
                "@id": "node/8780343407"
            }
        },
        {
            "type": "Feature",
            "id": "node/9507916333",
            "geometry": {
                "type": "Point",
                "coordinates": [
                    13.329607,
                    52.50317
                ]
            },
            "properties": {
                "brand": "Starbucks",
                "amenity": "cafe",
                "opening_hours": "Mo-Sa 08:00-21:00; Su 08:00-19:30",
                "@id": "node/9507916333"
            }
        },
        {
            "type": "Feature",
            "id": "node/9620186718",
            "geometry": {
                "type": "Point",
                "coordinates": [
                    13.332566,
                    52.507044
                ]
            },
            "properties": {
                "brand": "Starbucks",
                "amenity": "cafe",
                "opening_hours": "Mo-Su 06:00-20:00",
                "@id": "node/9620186718"
            }
        },
        {
            "type": "Feature",
            "id": "node/9762049458",
            "geometry": {
                "type": "Point",
                "coordinates": [
                    9.181892,
                    48.785287
                ]
            },
            "properties": {
                "brand": "Starbucks",
                "amenity": "cafe",
                "opening_hours": "PH,Mo-Su 06:00-21:30",
                "@id": "node/9762049458"
            }
        },
        {
            "type": "Feature",
            "id": "node/10199576804",
            "geometry": {
                "type": "Point",
                "coordinates": [
                    7.149257,
                    51.255812
                ]
            },
            "properties": {
                "brand": "Starbucks",
                "addr:street": "Alte Freiheit",
                "addr:postcode": "42103",
                "amenity": "cafe",
                "opening_hours": "Mo-Fr 07:30-20:30; Sa 08:00-20:30; Su,PH 11:00-18:30",
                "addr:city": "Wuppertal",
                "addr:housenumber": "27",
                "@id": "node/10199576804"
            }
        },
        {
            "type": "Feature",
            "id": "node/10258996561",
            "geometry": {
                "type": "Point",
                "coordinates": [
                    9.043136,
                    48.684728
                ]
            },
            "properties": {
                "brand": "Starbucks",
                "amenity": "cafe",
                "@id": "node/10258996561"
            }
        },
        {
            "type": "Feature",
            "id": "node/10572580830",
            "geometry": {
                "type": "Point",
                "coordinates": [
                    9.184608,
                    48.790701
                ]
            },
            "properties": {
                "brand": "Starbucks",
                "amenity": "cafe",
                "opening_hours": "Mo-Th 10:00-20:00; Fr 10:00-21:30; Sa 09:30-20:00; Su, PH off",
                "@id": "node/10572580830"
            }
        },
        {
            "type": "Feature",
            "id": "node/10584621187",
            "geometry": {
                "type": "Point",
                "coordinates": [
                    8.681472,
                    50.115308
                ]
            },
            "properties": {
                "brand": "Starbucks",
                "amenity": "cafe",
                "opening_hours": "Mo-Th 09:00-21:00; Fr,Sa 09:00-22:00; Su 12:00-20:00",
                "@id": "node/10584621187"
            }
        },
        {
            "type": "Feature",
            "id": "node/10599604600",
            "geometry": {
                "type": "Point",
                "coordinates": [
                    6.783109,
                    51.226705
                ]
            },
            "properties": {
                "brand": "Starbucks",
                "amenity": "cafe",
                "@id": "node/10599604600"
            }
        },
        {
            "type": "Feature",
            "id": "node/10703698175",
            "geometry": {
                "type": "Point",
                "coordinates": [
                    7.097193,
                    50.732947
                ]
            },
            "properties": {
                "brand": "Starbucks",
                "amenity": "cafe",
                "opening_hours": "Mo-Fr 06:30-20:30; Sa 08:30-20:30; PH,Su 10:00-19:30",
                "@id": "node/10703698175"
            }
        },
        {
            "type": "Feature",
            "id": "node/10773152123",
            "geometry": {
                "type": "Point",
                "coordinates": [
                    11.534813,
                    48.152689
                ]
            },
            "properties": {
                "brand": "Starbucks",
                "amenity": "cafe",
                "opening_hours": "Mo-Fr 07:30-20:30; Sa 08:00-20:30; Su 10:00-18:00",
                "@id": "node/10773152123"
            }
        },
        {
            "type": "Feature",
            "id": "node/10800211947",
            "geometry": {
                "type": "Point",
                "coordinates": [
                    13.414201,
                    52.520821
                ]
            },
            "properties": {
                "brand": "Starbucks",
                "amenity": "cafe",
                "opening_hours": "Mo-Fr 08:00-21:00; Sa,Su 09:00-20:00",
                "@id": "node/10800211947"
            }
        },
        {
            "type": "Feature",
            "id": "node/10801088923",
            "geometry": {
                "type": "Point",
                "coordinates": [
                    8.473622,
                    49.484062
                ]
            },
            "properties": {
                "brand": "Starbucks",
                "addr:postcode": "68161",
                "amenity": "cafe",
                "opening_hours": "Mo-Sa 08:00-20:00; Su 10:30-20:00",
                "addr:city": "Mannheim",
                "addr:housenumber": "18 a",
                "@id": "node/10801088923"
            }
        },
        {
            "type": "Feature",
            "id": "node/11046283711",
            "geometry": {
                "type": "Point",
                "coordinates": [
                    10.196298,
                    48.983926
                ]
            },
            "properties": {
                "brand": "Starbucks",
                "amenity": "cafe",
                "@id": "node/11046283711"
            }
        },
        {
            "type": "Feature",
            "id": "node/11048008912",
            "geometry": {
                "type": "Point",
                "coordinates": [
                    10.886669,
                    48.365293
                ]
            },
            "properties": {
                "brand": "Starbucks",
                "addr:street": "Viktoriastraße",
                "addr:postcode": "86150",
                "amenity": "cafe",
                "opening_hours": "Mo-Sa 06:00-22:00; Su,PH 06:00-20:00",
                "addr:city": "Augsburg",
                "addr:housenumber": "1",
                "@id": "node/11048008912"
            }
        },
        {
            "type": "Feature",
            "id": "node/11264494273",
            "geometry": {
                "type": "Point",
                "coordinates": [
                    13.414248,
                    52.549639
                ]
            },
            "properties": {
                "brand": "Starbucks",
                "addr:street": "Schönhauser Allee",
                "addr:postcode": "10439",
                "amenity": "cafe",
                "addr:city": "Berlin",
                "addr:housenumber": "75",
                "@id": "node/11264494273"
            }
        },
        {
            "type": "Feature",
            "id": "node/11279962836",
            "geometry": {
                "type": "Point",
                "coordinates": [
                    8.681625,
                    50.114832
                ]
            },
            "properties": {
                "brand": "Starbucks",
                "amenity": "cafe",
                "@id": "node/11279962836"
            }
        },
        {
            "type": "Feature",
            "id": "node/11356487177",
            "geometry": {
                "type": "Point",
                "coordinates": [
                    8.015927,
                    50.874634
                ]
            },
            "properties": {
                "brand": "Starbucks",
                "amenity": "cafe",
                "@id": "node/11356487177"
            }
        },
        {
            "type": "Feature",
            "id": "node/11630220194",
            "geometry": {
                "type": "Point",
                "coordinates": [
                    13.509139,
                    52.364266
                ]
            },
            "properties": {
                "brand": "Starbucks",
                "amenity": "cafe",
                "drive_through": "no",
                "@id": "node/11630220194"
            }
        },
        {
            "type": "Feature",
            "id": "node/11673168518",
            "geometry": {
                "type": "Point",
                "coordinates": [
                    11.568761,
                    48.134439
                ]
            },
            "properties": {
                "brand": "Starbucks",
                "addr:street": "Sendlinger Straße",
                "contact:website": "https://www.starbucks.com/store-locator/store/81107-308909/muenchen-sendlinger-strasse-3-sendlinger-strasse-37-muenchen-by-80331-de",
                "addr:postcode": "80331",
                "amenity": "cafe",
                "addr:city": "München",
                "addr:housenumber": "37",
                "@id": "node/11673168518"
            }
        },
        {
            "type": "Feature",
            "id": "node/11717339483",
            "geometry": {
                "type": "Point",
                "coordinates": [
                    13.387797,
                    52.525022
                ]
            },
            "properties": {
                "brand": "Starbucks",
                "amenity": "cafe",
                "opening_hours": "Mo-Fr 07:30-20:00; PH,Sa,Su 08:30-20:00",
                "@id": "node/11717339483"
            }
        },
        {
            "type": "Feature",
            "id": "node/11804770474",
            "geometry": {
                "type": "Point",
                "coordinates": [
                    6.08332,
                    50.776536
                ]
            },
            "properties": {
                "brand": "Starbucks",
                "addr:street": "Markt",
                "addr:postcode": "52062",
                "amenity": "cafe",
                "opening_hours": "Mo-Th 07:30-21:00; Fr 07:30-22:00; Sa 08:30-22:00; Su 09:00-21:00",
                "addr:city": "Aachen",
                "addr:housenumber": "35",
                "@id": "node/11804770474"
            }
        },
        {
            "type": "Feature",
            "id": "node/12100207438",
            "geometry": {
                "type": "Point",
                "coordinates": [
                    7.608773,
                    47.593085
                ]
            },
            "properties": {
                "brand": "Starbucks",
                "amenity": "cafe",
                "opening_hours": "Mo-Fr 09:00-20:30; Sa 08:30-20:30; Su 10:00-18:00",
                "@id": "node/12100207438"
            }
        },
        {
            "type": "Feature",
            "id": "node/12162960310",
            "geometry": {
                "type": "Point",
                "coordinates": [
                    11.559204,
                    48.13997
                ]
            },
            "properties": {
                "brand": "Starbucks",
                "amenity": "cafe",
                "@id": "node/12162960310"
            }
        },
        {
            "type": "Feature",
            "id": "node/12233179032",
            "geometry": {
                "type": "Point",
                "coordinates": [
                    13.507121,
                    52.364596
                ]
            },
            "properties": {
                "brand": "Starbucks",
                "amenity": "cafe",
                "@id": "node/12233179032"
            }
        },
        {
            "type": "Feature",
            "id": "node/12290061476",
            "geometry": {
                "type": "Point",
                "coordinates": [
                    13.321716,
                    52.457327
                ]
            },
            "properties": {
                "brand": "Starbucks",
                "addr:street": "Albrechtstraße",
                "contact:website": "https://www.starbucks.de/de/store-locator/80337-309540/berlin-albrechststrasse-132",
                "addr:postcode": "12165",
                "amenity": "cafe",
                "addr:city": "Berlin",
                "addr:housenumber": "132",
                "@id": "node/12290061476"
            }
        },
        {
            "type": "Feature",
            "id": "node/12573607904",
            "geometry": {
                "type": "Point",
                "coordinates": [
                    6.779818,
                    51.222873
                ]
            },
            "properties": {
                "brand": "Starbucks",
                "addr:street": "Steinstraße",
                "addr:postcode": "40212",
                "amenity": "cafe",
                "addr:city": "Düsseldorf",
                "addr:housenumber": "1-3",
                "@id": "node/12573607904"
            }
        },
        {
            "type": "Feature",
            "id": "node/12601250398",
            "geometry": {
                "type": "Point",
                "coordinates": [
                    13.33865,
                    52.503669
                ]
            },
            "properties": {
                "brand": "Starbucks",
                "amenity": "cafe",
                "opening_hours": "Mo-Sa 07:30-21:00; Su 09:00-19:00; PH 10:30-18:00",
                "@id": "node/12601250398"
            }
        },
        {
            "type": "Feature",
            "id": "node/12731626172",
            "geometry": {
                "type": "Point",
                "coordinates": [
                    9.998599,
                    53.540221
                ]
            },
            "properties": {
                "brand": "Starbucks",
                "amenity": "cafe",
                "@id": "node/12731626172"
            }
        },
        {
            "type": "Feature",
            "id": "node/12785769477",
            "geometry": {
                "type": "Point",
                "coordinates": [
                    12.75318,
                    52.132264
                ]
            },
            "properties": {
                "brand": "Starbucks",
                "amenity": "cafe",
                "@id": "node/12785769477"
            }
        },
        {
            "type": "Feature",
            "id": "node/12794546257",
            "geometry": {
                "type": "Point",
                "coordinates": [
                    8.353348,
                    50.097408
                ]
            },
            "properties": {
                "brand": "Starbucks",
                "amenity": "cafe",
                "@id": "node/12794546257"
            }
        },
        {
            "type": "Feature",
            "id": "node/12797954683",
            "geometry": {
                "type": "Point",
                "coordinates": [
                    13.799945,
                    50.997691
                ]
            },
            "properties": {
                "brand": "Starbucks",
                "amenity": "cafe",
                "opening_hours": "Mo-Sa 09:00-20:00; PH 10:00-14:00",
                "@id": "node/12797954683"
            }
        },
        {
            "type": "Feature",
            "id": "node/13031397851",
            "geometry": {
                "type": "Point",
                "coordinates": [
                    7.013128,
                    51.453233
                ]
            },
            "properties": {
                "brand": "Starbucks",
                "addr:street": "Kettwiger Straße",
                "addr:postcode": "45127",
                "amenity": "cafe",
                "opening_hours": "Mo-Fr 07:00-20:30, Sa 08:00-20:30, Su 10:00-19:00",
                "addr:city": "Essen",
                "addr:housenumber": "2 - 10",
                "@id": "node/13031397851"
            }
        },
        {
            "type": "Feature",
            "id": "node/13107798701",
            "geometry": {
                "type": "Point",
                "coordinates": [
                    6.939339,
                    50.936002
                ]
            },
            "properties": {
                "brand": "Starbucks",
                "addr:street": "Habsburgerring",
                "addr:postcode": "51103",
                "amenity": "cafe",
                "opening_hours": "Mo-Fr 07:00-19:30; Sa 08:00-19:30; Su 10:30-18:30",
                "addr:city": "Köln",
                "addr:housenumber": "24-28",
                "@id": "node/13107798701"
            }
        },
        {
            "type": "Feature",
            "id": "node/13281347657",
            "geometry": {
                "type": "Point",
                "coordinates": [
                    11.635511,
                    52.130101
                ]
            },
            "properties": {
                "brand": "Starbucks",
                "addr:street": "Breiter Weg",
                "addr:postcode": "39104",
                "amenity": "cafe",
                "opening_hours": "Mo-Fr 07:00-20:00; Sa-So 08:00-20:00",
                "addr:city": "Magdeburg",
                "addr:housenumber": "173",
                "@id": "node/13281347657"
            }
        },
        {
            "type": "Feature",
            "id": "node/13371550337",
            "geometry": {
                "type": "Point",
                "coordinates": [
                    7.664004,
                    47.614015
                ]
            },
            "properties": {
                "brand": "Starbucks",
                "amenity": "cafe",
                "@id": "node/13371550337"
            }
        },
        {
            "type": "Feature",
            "id": "way/28143594",
            "geometry": {
                "type": "Point",
                "coordinates": [
                    12.379286,
                    51.339385
                ]
            },
            "properties": {
                "brand": "Starbucks",
                "addr:street": "Grimmaische Straße",
                "addr:postcode": "04109",
                "amenity": "cafe",
                "opening_hours": "Mo-Sa 07:30-21:00; Su,PH 07:30-21:00",
                "addr:city": "Leipzig",
                "addr:housenumber": "14",
                "@id": "way/28143594"
            }
        },
        {
            "type": "Feature",
            "id": "way/152442725",
            "geometry": {
                "type": "Point",
                "coordinates": [
                    10.795113,
                    52.428788
                ]
            },
            "properties": {
                "brand": "Starbucks",
                "addr:street": "An der Vorburg",
                "addr:postcode": "38440",
                "amenity": "cafe",
                "opening_hours": "Mo-Sa 09:00-20:00",
                "addr:city": "Wolfsburg",
                "addr:housenumber": "1",
                "@id": "way/152442725"
            }
        },
        {
            "type": "Feature",
            "id": "way/182426957",
            "geometry": {
                "type": "Point",
                "coordinates": [
                    9.978476,
                    54.04317
                ]
            },
            "properties": {
                "brand": "Starbucks",
                "addr:street": "Oderstraße",
                "addr:postcode": "24539",
                "amenity": "cafe",
                "opening_hours": "Mo-Th 09:30-20:00; Fr-Sa 09:30-21:00",
                "addr:city": "Neumünster",
                "addr:housenumber": "10",
                "@id": "way/182426957"
            }
        },
        {
            "type": "Feature",
            "id": "way/187423281",
            "geometry": {
                "type": "Point",
                "coordinates": [
                    11.004421,
                    49.593689
                ]
            },
            "properties": {
                "brand": "Starbucks",
                "addr:street": "Nürnberger Straße",
                "addr:postcode": "91052",
                "amenity": "cafe",
                "opening_hours": "Mo-Fr 08:00-20:00; Sa 08:30-21:00; Su 09:00-21:00",
                "addr:city": "Erlangen",
                "addr:housenumber": "7",
                "@id": "way/187423281"
            }
        },
        {
            "type": "Feature",
            "id": "way/252855569",
            "geometry": {
                "type": "Point",
                "coordinates": [
                    7.628814,
                    51.95952
                ]
            },
            "properties": {
                "brand": "Starbucks",
                "addr:street": "Stubengasse",
                "addr:postcode": "48143",
                "amenity": "cafe",
                "opening_hours": "Mo-Fr 08:00-19:30; Sa 08:30-20:00; Su off; PH 11:00-18:00",
                "addr:city": "Münster",
                "addr:housenumber": "38",
                "@id": "way/252855569"
            }
        },
        {
            "type": "Feature",
            "id": "way/253488065",
            "geometry": {
                "type": "Point",
                "coordinates": [
                    7.199878,
                    52.209743
                ]
            },
            "properties": {
                "brand": "Starbucks",
                "addr:street": "Laurenzstraße",
                "addr:postcode": "48607",
                "amenity": "cafe",
                "drive_through": "no",
                "opening_hours": "Mo-Sa 10:00-20:00",
                "addr:city": "Ochtrup",
                "addr:housenumber": "59",
                "@id": "way/253488065"
            }
        },
        {
            "type": "Feature",
            "id": "way/271102603",
            "geometry": {
                "type": "Point",
                "coordinates": [
                    11.566008,
                    48.139069
                ]
            },
            "properties": {
                "brand": "Starbucks",
                "amenity": "cafe",
                "opening_hours": "Mo-Fr 07:00-21:00; Sa 08:00-21:00; Su,PH 10:30-18:00",
                "@id": "way/271102603"
            }
        },
        {
            "type": "Feature",
            "id": "way/293712530",
            "geometry": {
                "type": "Point",
                "coordinates": [
                    8.663794,
                    50.107366
                ]
            },
            "properties": {
                "brand": "Starbucks",
                "amenity": "cafe",
                "opening_hours": "Mo-Su 06:00-21:00",
                "@id": "way/293712530"
            }
        },
        {
            "type": "Feature",
            "id": "way/343201873",
            "geometry": {
                "type": "Point",
                "coordinates": [
                    10.007577,
                    53.552198
                ]
            },
            "properties": {
                "brand": "Starbucks",
                "amenity": "cafe",
                "opening_hours": "Mo-Su 05:00-22:00",
                "@id": "way/343201873"
            }
        },
        {
            "type": "Feature",
            "id": "way/346879444",
            "geometry": {
                "type": "Point",
                "coordinates": [
                    9.742379,
                    52.377125
                ]
            },
            "properties": {
                "brand": "Starbucks",
                "addr:street": "Ernst-August-Platz",
                "addr:postcode": "30159",
                "amenity": "cafe",
                "opening_hours": "Mo-Su 06:00-22:00",
                "addr:city": "Hannover",
                "addr:housenumber": "1",
                "@id": "way/346879444"
            }
        },
        {
            "type": "Feature",
            "id": "way/349128183",
            "geometry": {
                "type": "Point",
                "coordinates": [
                    11.559653,
                    48.141473
                ]
            },
            "properties": {
                "brand": "Starbucks",
                "amenity": "cafe",
                "opening_hours": "Mo-Su 06:00-22:00; PH 07:00-22:00",
                "@id": "way/349128183"
            }
        },
        {
            "type": "Feature",
            "id": "way/356054289",
            "geometry": {
                "type": "Point",
                "coordinates": [
                    8.570565,
                    50.053161
                ]
            },
            "properties": {
                "brand": "Starbucks",
                "amenity": "cafe",
                "opening_hours": "05:30-21:00",
                "@id": "way/356054289"
            }
        },
        {
            "type": "Feature",
            "id": "way/373530815",
            "geometry": {
                "type": "Point",
                "coordinates": [
                    8.813455,
                    53.082566
                ]
            },
            "properties": {
                "brand": "Starbucks",
                "amenity": "cafe",
                "opening_hours": "Mo-Su 08:00-20:00",
                "@id": "way/373530815"
            }
        },
        {
            "type": "Feature",
            "id": "way/373588287",
            "geometry": {
                "type": "Point",
                "coordinates": [
                    8.749424,
                    53.109956
                ]
            },
            "properties": {
                "brand": "Starbucks",
                "amenity": "cafe",
                "@id": "way/373588287"
            }
        },
        {
            "type": "Feature",
            "id": "way/373751750",
            "geometry": {
                "type": "Point",
                "coordinates": [
                    8.748874,
                    53.111857
                ]
            },
            "properties": {
                "brand": "Starbucks",
                "amenity": "cafe",
                "opening_hours": "Mo-Sa 08:30-21:00; Su,PH 12:00-19:00",
                "addr:city": "Bremen",
                "@id": "way/373751750"
            }
        },
        {
            "type": "Feature",
            "id": "way/399899296",
            "geometry": {
                "type": "Point",
                "coordinates": [
                    9.989278,
                    53.560841
                ]
            },
            "properties": {
                "brand": "Starbucks",
                "amenity": "cafe",
                "@id": "way/399899296"
            }
        },
        {
            "type": "Feature",
            "id": "way/426018927",
            "geometry": {
                "type": "Point",
                "coordinates": [
                    12.978419,
                    52.541375
                ]
            },
            "properties": {
                "brand": "Starbucks",
                "addr:street": "Alter Spandauer Weg",
                "addr:postcode": "14641",
                "amenity": "cafe",
                "opening_hours": "Mo-Sa 10:00-20:00",
                "addr:city": "Wustermark",
                "addr:housenumber": "1",
                "@id": "way/426018927"
            }
        },
        {
            "type": "Feature",
            "id": "way/429271492",
            "geometry": {
                "type": "Point",
                "coordinates": [
                    13.37017,
                    52.52466
                ]
            },
            "properties": {
                "brand": "Starbucks",
                "amenity": "cafe",
                "opening_hours": "Mo-Su,PH 05:30-22:00",
                "@id": "way/429271492"
            }
        },
        {
            "type": "Feature",
            "id": "way/431919543",
            "geometry": {
                "type": "Point",
                "coordinates": [
                    11.082606,
                    49.44659
                ]
            },
            "properties": {
                "brand": "Starbucks",
                "amenity": "cafe",
                "opening_hours": "Mo-Su 06:00-22:00",
                "@id": "way/431919543"
            }
        },
        {
            "type": "Feature",
            "id": "way/463687941",
            "geometry": {
                "type": "Point",
                "coordinates": [
                    8.258719,
                    50.001098
                ]
            },
            "properties": {
                "brand": "Starbucks",
                "addr:street": "Bahnhofplatz",
                "addr:postcode": "55116",
                "amenity": "cafe",
                "opening_hours": "Mo-Fr 06:00-20:00; Sa 08:00-21:00; Su 08:00-20:00; PH 10:00-17:00",
                "addr:city": "Mainz",
                "@id": "way/463687941"
            }
        },
        {
            "type": "Feature",
            "id": "way/500103218",
            "geometry": {
                "type": "Point",
                "coordinates": [
                    6.774133,
                    51.430026
                ]
            },
            "properties": {
                "brand": "Starbucks",
                "amenity": "cafe",
                "opening_hours": "Mo-Fr 06:00-20:00; Sa,Su,PH 08:00-20:00",
                "@id": "way/500103218"
            }
        },
        {
            "type": "Feature",
            "id": "way/511784339",
            "geometry": {
                "type": "Point",
                "coordinates": [
                    7.013585,
                    51.451172
                ]
            },
            "properties": {
                "brand": "Starbucks",
                "amenity": "cafe",
                "opening_hours": "Mo-Fr 06:00-21:00; Sa-Su 08:00-21:00; PH 08:00-20:00",
                "@id": "way/511784339"
            }
        },
        {
            "type": "Feature",
            "id": "way/520932801",
            "geometry": {
                "type": "Point",
                "coordinates": [
                    11.037249,
                    50.972602
                ]
            },
            "properties": {
                "brand": "Starbucks",
                "addr:street": "Willy-Brandt-Platz",
                "addr:postcode": "99084",
                "amenity": "cafe",
                "opening_hours": "Mo-Fr 08:00-18:00; Sa-Su 09:00-18:00",
                "addr:city": "Erfurt",
                "addr:housenumber": "12",
                "@id": "way/520932801"
            }
        },
        {
            "type": "Feature",
            "id": "way/569773169",
            "geometry": {
                "type": "Point",
                "coordinates": [
                    8.606789,
                    49.892139
                ]
            },
            "properties": {
                "brand": "Starbucks",
                "amenity": "cafe",
                "opening_hours": "Mo-Th 10:00-20:00; Fr-Sa 10:00-21:00; Su off",
                "@id": "way/569773169"
            }
        },
        {
            "type": "Feature",
            "id": "way/634421181",
            "geometry": {
                "type": "Point",
                "coordinates": [
                    7.634698,
                    51.956903
                ]
            },
            "properties": {
                "brand": "Starbucks",
                "amenity": "cafe",
                "opening_hours": "Mo-Fr 06:30-22:00; Su,PH 08:30-22:00; Sa 08:30-22:00",
                "@id": "way/634421181"
            }
        },
        {
            "type": "Feature",
            "id": "way/666756913",
            "geometry": {
                "type": "Point",
                "coordinates": [
                    9.737755,
                    52.377173
                ]
            },
            "properties": {
                "brand": "Starbucks",
                "amenity": "cafe",
                "opening_hours": "Mo-Sa 08:00-20:00",
                "@id": "way/666756913"
            }
        },
        {
            "type": "Feature",
            "id": "way/666773382",
            "geometry": {
                "type": "Point",
                "coordinates": [
                    9.738381,
                    52.377452
                ]
            },
            "properties": {
                "brand": "Starbucks",
                "amenity": "cafe",
                "@id": "way/666773382"
            }
        },
        {
            "type": "Feature",
            "id": "way/735223533",
            "geometry": {
                "type": "Point",
                "coordinates": [
                    10.005868,
                    53.55284
                ]
            },
            "properties": {
                "brand": "Starbucks",
                "amenity": "cafe",
                "@id": "way/735223533"
            }
        },
        {
            "type": "Feature",
            "id": "way/740025150",
            "geometry": {
                "type": "Point",
                "coordinates": [
                    13.445281,
                    52.505822
                ]
            },
            "properties": {
                "brand": "Starbucks",
                "amenity": "cafe",
                "@id": "way/740025150"
            }
        },
        {
            "type": "Feature",
            "id": "way/1000656389",
            "geometry": {
                "type": "Point",
                "coordinates": [
                    9.995589,
                    53.551576
                ]
            },
            "properties": {
                "brand": "Starbucks",
                "amenity": "cafe",
                "opening_hours": "Mo-Fr 07:00-20:00; Sa 08:00-20:00; Su 10:30-17:30; PH 12:30-17:30",
                "@id": "way/1000656389"
            }
        },
        {
            "type": "Feature",
            "id": "way/1257446768",
            "geometry": {
                "type": "Point",
                "coordinates": [
                    7.596469,
                    50.358196
                ]
            },
            "properties": {
                "brand": "Starbucks",
                "addr:street": "Zentralplatz",
                "contact:website": "https://starbucks.com/store-locator/store/1018798/forum-mittelrhein-goergenstrasse-koblenz-rp-56068-de",
                "addr:postcode": "56068",
                "amenity": "cafe",
                "opening_hours": "Mo-Fr 08:00-20:00; Sa 09:00-20:00; Su 12:00-18:00",
                "addr:city": "Koblenz",
                "addr:housenumber": "2",
                "@id": "way/1257446768"
            }
        },
        {
            "type": "Feature",
            "id": "way/1382785512",
            "geometry": {
                "type": "Point",
                "coordinates": [
                    11.790009,
                    48.354253
                ]
            },
            "properties": {
                "brand": "Starbucks",
                "amenity": "cafe",
                "opening_hours": "Mo-Su,PH 05:00-22:00",
                "@id": "way/1382785512"
            }
        },
        {
            "type": "Feature",
            "id": "way/1387586334",
            "geometry": {
                "type": "Point",
                "coordinates": [
                    6.835193,
                    50.937743
                ]
            },
            "properties": {
                "brand": "Starbucks",
                "amenity": "cafe",
                "opening_hours": "Mo-Sa 09:30-20:00",
                "@id": "way/1387586334"
            }
        },
        {
            "type": "Feature",
            "id": "relation/12354609",
            "geometry": {
                "type": "Point",
                "coordinates": [
                    8.401839,
                    49.007312
                ]
            },
            "properties": {
                "brand": "Starbucks",
                "amenity": "cafe",
                "opening_hours": "Mo-Sa 09:00-18:00; Su,PH off",
                "@id": "relation/12354609"
            }
        }
    ]
}